<?xml version="1.0" ?><gpx xmlns="http://www.topografix.com/GPX/1/1" creator="GaiaGPS" version="1.1" xmlns:xsi="http://www.w3.org/2001/XMLSchema-instance" xsi:schemaLocation="http://www.topografix.com/GPX/1/1 http://www.topografix.com/GPX/1/1/gpx.xsd"><trk><name>Home Loop</name><desc></desc><extensions><line xmlns="http://www.topografix.com/GPX/gpx_style/0/2"><color>FF6200</color></line></extensions><trkseg><trkpt lat="52.289868" lon="-114.47087"><ele>975.1108278866562</ele><time>2026-09-19T21:52:03Z</time></trkpt><trkpt lat="52.289798" lon="-114.470862"><ele>975.0617550535515</ele><time>2026-09-19T21:52:12Z</time></trkpt><trkpt lat="52.289784" lon="-114.470858"><ele>975.0195305421202</ele><time>2026-09-19T21:52:13Z</time></trkpt><trkpt lat="52.289659" lon="-114.470824"><ele>974.4607666425296</ele><time>2026-09-19T21:52:22Z</time></trkpt><trkpt lat="52.289647" lon="-114.470824"><ele>974.4299144903007</ele><time>2026-09-19T21:52:23Z</time></trkpt><trkpt lat="52.289519" lon="-114.470784"><ele>975.6340115234241</ele><time>2026-09-19T21:52:33Z</time></trkpt><trkpt lat="52.289456" lon="-114.470773"><ele>976.587020470708</ele><time>2026-09-19T21:52:38Z</time></trkpt><trkpt lat="52.289445" lon="-114.470772"><ele>976.4833298315219</ele><time>2026-09-19T21:52:39Z</time></trkpt><trkpt lat="52.289264" lon="-114.470712"><ele>977.8679846223608</ele><time>2026-09-19T21:52:54Z</time></trkpt><trkpt lat="52.289253" lon="-114.470709"><ele>977.8478933396591</ele><time>2026-09-19T21:52:55Z</time></trkpt><trkpt lat="52.289064" lon="-114.470681"><ele>976.6194965292134</ele><time>2026-09-19T21:53:11Z</time></trkpt><trkpt lat="52.289052" lon="-114.470681"><ele>976.5999366474848</ele><time>2026-09-19T21:53:12Z</time></trkpt><trkpt lat="52.288881" lon="-114.470651"><ele>976.506887837874</ele><time>2026-09-19T21:53:26Z</time></trkpt><trkpt lat="52.288869" lon="-114.47065"><ele>976.5874401452564</ele><time>2026-09-19T21:53:27Z</time></trkpt><trkpt lat="52.288713" lon="-114.470631"><ele>977.7739286451874</ele><time>2026-09-19T21:53:40Z</time></trkpt><trkpt lat="52.288683" lon="-114.470615"><ele>977.648098955557</ele><time>2026-09-19T21:53:43Z</time></trkpt><trkpt lat="52.288674" lon="-114.470605"><ele>977.483474198685</ele><time>2026-09-19T21:53:44Z</time></trkpt><trkpt lat="52.288652" lon="-114.470558"><ele>977.0926232385748</ele><time>2026-09-19T21:53:47Z</time></trkpt><trkpt lat="52.288647" lon="-114.470482"><ele>976.8545739780251</ele><time>2026-09-19T21:53:51Z</time></trkpt><trkpt lat="52.288682" lon="-114.470418"><ele>976.7319928414557</ele><time>2026-09-19T21:53:55Z</time></trkpt><trkpt lat="52.288707" lon="-114.470405"><ele>976.5054568388107</ele><time>2026-09-19T21:53:57Z</time></trkpt><trkpt lat="52.288721" lon="-114.470408"><ele>976.2395011387068</ele><time>2026-09-19T21:53:58Z</time></trkpt><trkpt lat="52.288733" lon="-114.470415"><ele>976.3585123137245</ele><time>2026-09-19T21:53:59Z</time></trkpt><trkpt lat="52.288762" lon="-114.47046"><ele>975.7945196083675</ele><time>2026-09-19T21:54:02Z</time></trkpt><trkpt lat="52.288789" lon="-114.470574"><ele>975.3902400676026</ele><time>2026-09-19T21:54:08Z</time></trkpt><trkpt lat="52.28883" lon="-114.470686"><ele>975.8366941019269</ele><time>2026-09-19T21:54:15Z</time></trkpt><trkpt lat="52.288834" lon="-114.470688"><ele>975.7749851331857</ele><time>2026-09-19T21:54:16Z</time></trkpt><trkpt lat="52.288839" lon="-114.470687"><ele>975.935867919705</ele><time>2026-09-19T21:54:28Z</time></trkpt></trkseg></trk></gpx>