{"type":"FeatureCollection","features":[{"type":"Feature","id":"20260823_140246","properties":{"file":"20260823_140246","taken":"2026-08-23T14:02:46-06:00","title":null,"caption":null,"near":"Quarter Section Boundary"},"geometry":{"type":"Point","coordinates":[-114.644331,52.225136]}},{"type":"Feature","id":"20260823_140252","properties":{"file":"20260823_140252","taken":"2026-08-23T14:02:53-06:00","title":null,"caption":null,"near":"Quarter Section Boundary"},"geometry":{"type":"Point","coordinates":[-114.644331,52.225136]}},{"type":"Feature","id":"20260823_141225","properties":{"file":"20260823_141225","taken":"2026-08-23T14:12:25-06:00","title":null,"caption":null,"near":"Quarter Section Boundary"},"geometry":{"type":"Point","coordinates":[-114.644309,52.225183]}},{"type":"Feature","id":"20260823_141232","properties":{"file":"20260823_141232","taken":"2026-08-23T14:12:32-06:00","title":null,"caption":null,"near":"Quarter Section Boundary"},"geometry":{"type":"Point","coordinates":[-114.644309,52.225183]}},{"type":"Feature","id":"20260823_141253","properties":{"file":"20260823_141253","taken":"2026-08-23T14:12:54-06:00","title":null,"caption":null,"near":"Quarter Section Boundary"},"geometry":{"type":"Point","coordinates":[-114.644383,52.225165]}},{"type":"Feature","id":"20260823_141340","properties":{"file":"20260823_141340","taken":"2026-08-23T14:13:40-06:00","title":null,"caption":null,"near":"Driveway & Main Yard"},"geometry":{"type":"Point","coordinates":[-114.64599,52.22573]}},{"type":"Feature","id":"20260823_141349","properties":{"file":"20260823_141349","taken":"2026-08-23T14:13:49-06:00","title":null,"caption":null,"near":"Driveway & Main Yard"},"geometry":{"type":"Point","coordinates":[-114.64599,52.22573]}},{"type":"Feature","id":"20260823_141412","properties":{"file":"20260823_141412","taken":"2026-08-23T14:14:12-06:00","title":null,"caption":null,"near":"Driveway & Main Yard"},"geometry":{"type":"Point","coordinates":[-114.64599,52.22573]}},{"type":"Feature","id":"20260823_141433","properties":{"file":"20260823_141433","taken":"2026-08-23T14:14:33-06:00","title":null,"caption":null,"near":"Driveway & Main Yard"},"geometry":{"type":"Point","coordinates":[-114.645967,52.225875]}},{"type":"Feature","id":"20260823_141442","properties":{"file":"20260823_141442","taken":"2026-08-23T14:14:42-06:00","title":null,"caption":null,"near":"Driveway & Main Yard"},"geometry":{"type":"Point","coordinates":[-114.645967,52.225875]}},{"type":"Feature","id":"20260823_141455","properties":{"file":"20260823_141455","taken":"2026-08-23T14:14:55-06:00","title":null,"caption":null,"near":"Driveway & Main Yard"},"geometry":{"type":"Point","coordinates":[-114.645967,52.225875]}},{"type":"Feature","id":"20260823_141504","properties":{"file":"20260823_141504","taken":"2026-08-23T14:15:04-06:00","title":null,"caption":null,"near":"Driveway & Main Yard"},"geometry":{"type":"Point","coordinates":[-114.645967,52.225875]}},{"type":"Feature","id":"20260823_141519","properties":{"file":"20260823_141519","taken":"2026-08-23T14:15:19-06:00","title":null,"caption":null,"near":"Driveway & Main Yard"},"geometry":{"type":"Point","coordinates":[-114.645967,52.225875]}},{"type":"Feature","id":"20260823_141535","properties":{"file":"20260823_141535","taken":"2026-08-23T14:15:35-06:00","title":null,"caption":null,"near":"Driveway & Main Yard"},"geometry":{"type":"Point","coordinates":[-114.646094,52.226008]}},{"type":"Feature","id":"20260823_141547","properties":{"file":"20260823_141547","taken":"2026-08-23T14:15:48-06:00","title":null,"caption":null,"near":"Driveway & Main Yard"},"geometry":{"type":"Point","coordinates":[-114.646119,52.226046]}},{"type":"Feature","id":"20260823_141603","properties":{"file":"20260823_141603","taken":"2026-08-23T14:16:03-06:00","title":null,"caption":null,"near":"Driveway & Main Yard"},"geometry":{"type":"Point","coordinates":[-114.646119,52.226046]}},{"type":"Feature","id":"20260823_141618","properties":{"file":"20260823_141618","taken":"2026-08-23T14:16:18-06:00","title":null,"caption":null,"near":"Driveway & Main Yard"},"geometry":{"type":"Point","coordinates":[-114.646119,52.226046]}},{"type":"Feature","id":"20260823_141635","properties":{"file":"20260823_141635","taken":"2026-08-23T14:16:35-06:00","title":null,"caption":null,"near":"Driveway & Main Yard"},"geometry":{"type":"Point","coordinates":[-114.646327,52.226026]}},{"type":"Feature","id":"20260823_141650","properties":{"file":"20260823_141650","taken":"2026-08-23T14:16:50-06:00","title":null,"caption":null,"near":"Driveway & Main Yard"},"geometry":{"type":"Point","coordinates":[-114.646385,52.226065]}},{"type":"Feature","id":"20260823_141702","properties":{"file":"20260823_141702","taken":"2026-08-23T14:17:02-06:00","title":null,"caption":null,"near":"Driveway & Main Yard"},"geometry":{"type":"Point","coordinates":[-114.646385,52.226065]}},{"type":"Feature","id":"20260823_141713","properties":{"file":"20260823_141713","taken":"2026-08-23T14:17:14-06:00","title":null,"caption":null,"near":"Driveway & Main Yard"},"geometry":{"type":"Point","coordinates":[-114.646385,52.226065]}},{"type":"Feature","id":"20260823_141755","properties":{"file":"20260823_141755","taken":"2026-08-23T14:17:55-06:00","title":null,"caption":null,"near":"Driveway & Main Yard"},"geometry":{"type":"Point","coordinates":[-114.646082,52.22593]}},{"type":"Feature","id":"20260823_141821","properties":{"file":"20260823_141821","taken":"2026-08-23T14:18:21-06:00","title":null,"caption":null,"near":"Driveway & Main Yard"},"geometry":{"type":"Point","coordinates":[-114.646082,52.22593]}},{"type":"Feature","id":"20260823_141852","properties":{"file":"20260823_141852","taken":"2026-08-23T14:18:52-06:00","title":null,"caption":null,"near":"Driveway & Main Yard"},"geometry":{"type":"Point","coordinates":[-114.645979,52.22576]}},{"type":"Feature","id":"20260823_141931","properties":{"file":"20260823_141931","taken":"2026-08-23T14:19:31-06:00","title":null,"caption":null,"near":"Driveway & Main Yard"},"geometry":{"type":"Point","coordinates":[-114.645979,52.22576]}},{"type":"Feature","id":"20260823_141951","properties":{"file":"20260823_141951","taken":"2026-08-23T14:19:51-06:00","title":null,"caption":null,"near":"Driveway & Main Yard"},"geometry":{"type":"Point","coordinates":[-114.646084,52.225897]}},{"type":"Feature","id":"20260823_142026","properties":{"file":"20260823_142026","taken":"2026-08-23T14:20:26-06:00","title":null,"caption":null,"near":"Driveway & Main Yard"},"geometry":{"type":"Point","coordinates":[-114.64612,52.225938]}},{"type":"Feature","id":"20260823_142038","properties":{"file":"20260823_142038","taken":"2026-08-23T14:20:38-06:00","title":null,"caption":null,"near":"Driveway & Main Yard"},"geometry":{"type":"Point","coordinates":[-114.64612,52.225938]}},{"type":"Feature","id":"20260823_142050","properties":{"file":"20260823_142050","taken":"2026-08-23T14:20:50-06:00","title":null,"caption":null,"near":"Driveway & Main Yard"},"geometry":{"type":"Point","coordinates":[-114.64612,52.225938]}},{"type":"Feature","id":"20260823_142102","properties":{"file":"20260823_142102","taken":"2026-08-23T14:21:02-06:00","title":null,"caption":null,"near":"Driveway & Main Yard"},"geometry":{"type":"Point","coordinates":[-114.646344,52.225811]}},{"type":"Feature","id":"20260823_142113","properties":{"file":"20260823_142113","taken":"2026-08-23T14:21:13-06:00","title":null,"caption":null,"near":"Driveway & Main Yard"},"geometry":{"type":"Point","coordinates":[-114.646344,52.225811]}},{"type":"Feature","id":"20260823_142123","properties":{"file":"20260823_142123","taken":"2026-08-23T14:21:23-06:00","title":null,"caption":null,"near":"Driveway & Main Yard"},"geometry":{"type":"Point","coordinates":[-114.646344,52.225811]}},{"type":"Feature","id":"20260823_142132","properties":{"file":"20260823_142132","taken":"2026-08-23T14:21:32-06:00","title":null,"caption":null,"near":"Driveway & Main Yard"},"geometry":{"type":"Point","coordinates":[-114.646344,52.225811]}},{"type":"Feature","id":"20260823_142142","properties":{"file":"20260823_142142","taken":"2026-08-23T14:21:42-06:00","title":null,"caption":null,"near":"Driveway & Main Yard"},"geometry":{"type":"Point","coordinates":[-114.646344,52.225811]}},{"type":"Feature","id":"20260823_142150","properties":{"file":"20260823_142150","taken":"2026-08-23T14:21:50-06:00","title":null,"caption":null,"near":"Driveway & Main Yard"},"geometry":{"type":"Point","coordinates":[-114.646344,52.225811]}},{"type":"Feature","id":"20260823_142311","properties":{"file":"20260823_142311","taken":"2026-08-23T14:23:11-06:00","title":null,"caption":null,"near":"Driveway & Main Yard"},"geometry":{"type":"Point","coordinates":[-114.646436,52.22588]}},{"type":"Feature","id":"20260823_142317","properties":{"file":"20260823_142317","taken":"2026-08-23T14:23:17-06:00","title":null,"caption":null,"near":"Driveway & Main Yard"},"geometry":{"type":"Point","coordinates":[-114.646436,52.22588]}},{"type":"Feature","id":"20260823_142337","properties":{"file":"20260823_142337","taken":"2026-08-23T14:23:37-06:00","title":null,"caption":null,"near":"Hill behind house"},"geometry":{"type":"Point","coordinates":[-114.646623,52.225867]}},{"type":"Feature","id":"20260823_142348","properties":{"file":"20260823_142348","taken":"2026-08-23T14:23:48-06:00","title":null,"caption":null,"near":"Hill behind house"},"geometry":{"type":"Point","coordinates":[-114.646623,52.225867]}},{"type":"Feature","id":"20260823_142357","properties":{"file":"20260823_142357","taken":"2026-08-23T14:23:57-06:00","title":null,"caption":null,"near":"Hill behind house"},"geometry":{"type":"Point","coordinates":[-114.646623,52.225867]}},{"type":"Feature","id":"20260823_142402","properties":{"file":"20260823_142402","taken":"2026-08-23T14:24:02-06:00","title":null,"caption":null,"near":"Hill behind house"},"geometry":{"type":"Point","coordinates":[-114.646623,52.225867]}},{"type":"Feature","id":"20260823_142411","properties":{"file":"20260823_142411","taken":"2026-08-23T14:24:11-06:00","title":null,"caption":null,"near":"Hill behind house"},"geometry":{"type":"Point","coordinates":[-114.646812,52.22592]}},{"type":"Feature","id":"20260823_142418","properties":{"file":"20260823_142418","taken":"2026-08-23T14:24:18-06:00","title":null,"caption":null,"near":"Hill behind house"},"geometry":{"type":"Point","coordinates":[-114.646812,52.22592]}},{"type":"Feature","id":"20260823_142423","properties":{"file":"20260823_142423","taken":"2026-08-23T14:24:23-06:00","title":null,"caption":null,"near":"Hill behind house"},"geometry":{"type":"Point","coordinates":[-114.646812,52.22592]}},{"type":"Feature","id":"20260823_142436","properties":{"file":"20260823_142436","taken":"2026-08-23T14:24:35-06:00","title":null,"caption":null,"near":"Hill behind house"},"geometry":{"type":"Point","coordinates":[-114.646812,52.22592]}},{"type":"Feature","id":"20260823_142451","properties":{"file":"20260823_142451","taken":"2026-08-23T14:24:50-06:00","title":null,"caption":null,"near":"Hill behind house"},"geometry":{"type":"Point","coordinates":[-114.646812,52.22592]}},{"type":"Feature","id":"20260823_142500","properties":{"file":"20260823_142500","taken":"2026-08-23T14:25:00-06:00","title":null,"caption":null,"near":"Hill behind house"},"geometry":{"type":"Point","coordinates":[-114.646812,52.22592]}},{"type":"Feature","id":"20260823_142508","properties":{"file":"20260823_142508","taken":"2026-08-23T14:25:08-06:00","title":null,"caption":null,"near":"Hill behind house"},"geometry":{"type":"Point","coordinates":[-114.646659,52.22592]}},{"type":"Feature","id":"20260823_142517","properties":{"file":"20260823_142517","taken":"2026-08-23T14:25:18-06:00","title":null,"caption":null,"near":"Hill behind house"},"geometry":{"type":"Point","coordinates":[-114.646621,52.225909]}},{"type":"Feature","id":"20260823_142526","properties":{"file":"20260823_142526","taken":"2026-08-23T14:25:26-06:00","title":null,"caption":null,"near":"Hill behind house"},"geometry":{"type":"Point","coordinates":[-114.646621,52.225909]}},{"type":"Feature","id":"20260823_142533","properties":{"file":"20260823_142533","taken":"2026-08-23T14:25:34-06:00","title":null,"caption":null,"near":"Hill behind house"},"geometry":{"type":"Point","coordinates":[-114.646621,52.225909]}},{"type":"Feature","id":"20260823_142545","properties":{"file":"20260823_142545","taken":"2026-08-23T14:25:46-06:00","title":null,"caption":null,"near":"Hill behind house"},"geometry":{"type":"Point","coordinates":[-114.646621,52.225909]}},{"type":"Feature","id":"20260823_142604","properties":{"file":"20260823_142604","taken":"2026-08-23T14:26:04-06:00","title":null,"caption":null,"near":"Hill behind house"},"geometry":{"type":"Point","coordinates":[-114.646621,52.225909]}},{"type":"Feature","id":"20260823_143323","properties":{"file":"20260823_143323","taken":"2026-08-23T14:33:23-06:00","title":null,"caption":null,"near":"Driveway & Main Yard"},"geometry":{"type":"Point","coordinates":[-114.646269,52.225811]}},{"type":"Feature","id":"20260823_143502","properties":{"file":"20260823_143502","taken":"2026-08-23T14:35:02-06:00","title":null,"caption":null,"near":"Driveway & Main Yard"},"geometry":{"type":"Point","coordinates":[-114.646061,52.225862]}},{"type":"Feature","id":"20260823_143508","properties":{"file":"20260823_143508","taken":"2026-08-23T14:35:08-06:00","title":null,"caption":null,"near":"Driveway & Main Yard"},"geometry":{"type":"Point","coordinates":[-114.646061,52.225862]}},{"type":"Feature","id":"20260823_143530","properties":{"file":"20260823_143530","taken":"2026-08-23T14:35:30-06:00","title":null,"caption":null,"near":"Driveway & Main Yard"},"geometry":{"type":"Point","coordinates":[-114.6462,52.22582]}},{"type":"Feature","id":"20260823_144533","properties":{"file":"20260823_144533","taken":"2026-08-23T14:45:33-06:00","title":null,"caption":null,"near":"Quarter Section Boundary"},"geometry":{"type":"Point","coordinates":[-114.64455,52.228075]}},{"type":"Feature","id":"20260823_144535","properties":{"file":"20260823_144535","taken":"2026-08-23T14:45:35-06:00","title":null,"caption":null,"near":"Quarter Section Boundary"},"geometry":{"type":"Point","coordinates":[-114.64455,52.228075]}},{"type":"Feature","id":"20260823_144817","properties":{"file":"20260823_144817","taken":"2026-08-23T14:48:17-06:00","title":null,"caption":null,"near":"Quarter Section Boundary"},"geometry":{"type":"Point","coordinates":[-114.644548,52.229994]}},{"type":"Feature","id":"20260823_144823","properties":{"file":"20260823_144823","taken":"2026-08-23T14:48:23-06:00","title":null,"caption":null,"near":"Quarter Section Boundary"},"geometry":{"type":"Point","coordinates":[-114.644489,52.229994]}},{"type":"Feature","id":"20260823_144945","properties":{"file":"20260823_144945","taken":"2026-08-23T14:49:45-06:00","title":null,"caption":null,"near":"Quarter Section Boundary"},"geometry":{"type":"Point","coordinates":[-114.644508,52.230686]}},{"type":"Feature","id":"20260823_144954","properties":{"file":"20260823_144954","taken":"2026-08-23T14:49:54-06:00","title":null,"caption":null,"near":"Quarter Section Boundary"},"geometry":{"type":"Point","coordinates":[-114.644509,52.230685]}},{"type":"Feature","id":"20260823_145552","properties":{"file":"20260823_145552","taken":"2026-08-23T14:55:52-06:00","title":null,"caption":null,"near":"Quarter Section Boundary"},"geometry":{"type":"Point","coordinates":[-114.649847,52.231607]}},{"type":"Feature","id":"20260823_151314","properties":{"file":"20260823_151314","taken":"2026-08-23T15:13:14-06:00","title":null,"caption":null,"near":"Quarter Section Boundary"},"geometry":{"type":"Point","coordinates":[-114.656177,52.223951]}},{"type":"Feature","id":"20260823_151315","properties":{"file":"20260823_151315","taken":"2026-08-23T15:13:15-06:00","title":null,"caption":null,"near":"Quarter Section Boundary"},"geometry":{"type":"Point","coordinates":[-114.656177,52.223951]}},{"type":"Feature","id":"20260823_152442","properties":{"file":"20260823_152442","taken":"2026-08-23T15:24:42-06:00","title":null,"caption":null,"near":"Driveway & Main Yard"},"geometry":{"type":"Point","coordinates":[-114.644701,52.225109]}},{"type":"Feature","id":"20260823_152919","properties":{"file":"20260823_152919","taken":"2026-08-23T15:29:19-06:00","title":null,"caption":null,"near":null},"geometry":{"type":"Point","coordinates":[-114.647502,52.227749]}},{"type":"Feature","id":"20260823_152953","properties":{"file":"20260823_152953","taken":"2026-08-23T15:29:53-06:00","title":null,"caption":null,"near":null},"geometry":{"type":"Point","coordinates":[-114.6475,52.22782]}},{"type":"Feature","id":"20260823_152957","properties":{"file":"20260823_152957","taken":"2026-08-23T15:29:57-06:00","title":null,"caption":null,"near":null},"geometry":{"type":"Point","coordinates":[-114.6475,52.22782]}},{"type":"Feature","id":"20260823_153049","properties":{"file":"20260823_153049","taken":"2026-08-23T15:30:49-06:00","title":null,"caption":null,"near":null},"geometry":{"type":"Point","coordinates":[-114.645915,52.228205]}},{"type":"Feature","id":"20260823_153052","properties":{"file":"20260823_153052","taken":"2026-08-23T15:30:52-06:00","title":null,"caption":null,"near":null},"geometry":{"type":"Point","coordinates":[-114.645915,52.228205]}},{"type":"Feature","id":"20260823_153112","properties":{"file":"20260823_153112","taken":"2026-08-23T15:31:12-06:00","title":null,"caption":null,"near":null},"geometry":{"type":"Point","coordinates":[-114.64574,52.229651]}},{"type":"Feature","id":"20260823_153141","properties":{"file":"20260823_153141","taken":"2026-08-23T15:31:41-06:00","title":null,"caption":null,"near":null},"geometry":{"type":"Point","coordinates":[-114.64574,52.229651]}},{"type":"Feature","id":"20260823_153143","properties":{"file":"20260823_153143","taken":"2026-08-23T15:31:43-06:00","title":null,"caption":null,"near":null},"geometry":{"type":"Point","coordinates":[-114.64574,52.229651]}},{"type":"Feature","id":"20260823_153150","properties":{"file":"20260823_153150","taken":"2026-08-23T15:31:50-06:00","title":null,"caption":null,"near":null},"geometry":{"type":"Point","coordinates":[-114.64574,52.229651]}},{"type":"Feature","id":"20260823_153159","properties":{"file":"20260823_153159","taken":"2026-08-23T15:31:59-06:00","title":null,"caption":null,"near":null},"geometry":{"type":"Point","coordinates":[-114.64574,52.229651]}},{"type":"Feature","id":"20260823_153201","properties":{"file":"20260823_153201","taken":"2026-08-23T15:32:01-06:00","title":null,"caption":null,"near":null},"geometry":{"type":"Point","coordinates":[-114.64596,52.228961]}},{"type":"Feature","id":"20260823_153446","properties":{"file":"20260823_153446","taken":"2026-08-23T15:34:46-06:00","title":null,"caption":null,"near":"Acreage Parcel"},"geometry":{"type":"Point","coordinates":[-114.644548,52.230666]}},{"type":"Feature","id":"20260823_154319","properties":{"file":"20260823_154319","taken":"2026-08-23T15:43:19-06:00","title":null,"caption":null,"near":"Acreage Parcel"},"geometry":{"type":"Point","coordinates":[-114.644875,52.23026]}},{"type":"Feature","id":"20260823_154355","properties":{"file":"20260823_154355","taken":"2026-08-23T15:43:55-06:00","title":null,"caption":null,"near":null},"geometry":{"type":"Point","coordinates":[-114.646236,52.230701]}},{"type":"Feature","id":"20260823_154446","properties":{"file":"20260823_154446","taken":"2026-08-23T15:44:46-06:00","title":null,"caption":null,"near":"Acreage Parcel"},"geometry":{"type":"Point","coordinates":[-114.64692,52.230134]}},{"type":"Feature","id":"20260823_154503","properties":{"file":"20260823_154503","taken":"2026-08-23T15:45:03-06:00","title":null,"caption":null,"near":"Acreage Parcel"},"geometry":{"type":"Point","coordinates":[-114.64692,52.230134]}},{"type":"Feature","id":"20260823_154823","properties":{"file":"20260823_154823","taken":"2026-08-23T15:48:23-06:00","title":null,"caption":null,"near":null},"geometry":{"type":"Point","coordinates":[-114.649474,52.23127]}},{"type":"Feature","id":"20260823_154829","properties":{"file":"20260823_154829","taken":"2026-08-23T15:48:29-06:00","title":null,"caption":null,"near":null},"geometry":{"type":"Point","coordinates":[-114.649475,52.231272]}},{"type":"Feature","id":"20260823_154833","properties":{"file":"20260823_154833","taken":"2026-08-23T15:48:33-06:00","title":null,"caption":null,"near":null},"geometry":{"type":"Point","coordinates":[-114.649495,52.231269]}},{"type":"Feature","id":"20260823_155013","properties":{"file":"20260823_155013","taken":"2026-08-23T15:50:13-06:00","title":null,"caption":null,"near":null},"geometry":{"type":"Point","coordinates":[-114.647664,52.228176]}},{"type":"Feature","id":"20260823_155016","properties":{"file":"20260823_155016","taken":"2026-08-23T15:50:16-06:00","title":null,"caption":null,"near":null},"geometry":{"type":"Point","coordinates":[-114.647717,52.22828]}},{"type":"Feature","id":"20260823_155113","properties":{"file":"20260823_155113","taken":"2026-08-23T15:51:13-06:00","title":null,"caption":null,"near":"Field Highway Trail"},"geometry":{"type":"Point","coordinates":[-114.646622,52.226177]}},{"type":"Feature","id":"20260823_155227","properties":{"file":"20260823_155227","taken":"2026-08-23T15:52:27-06:00","title":null,"caption":null,"near":"Trail Home"},"geometry":{"type":"Point","coordinates":[-114.647007,52.226108]}},{"type":"Feature","id":"20260823_155305","properties":{"file":"20260823_155305","taken":"2026-08-23T15:53:05-06:00","title":null,"caption":null,"near":"Cougar Bridge Trail"},"geometry":{"type":"Point","coordinates":[-114.64719,52.226199]}},{"type":"Feature","id":"20260823_155323","properties":{"file":"20260823_155323","taken":"2026-08-23T15:53:23-06:00","title":null,"caption":null,"near":"Cougar Bridge Trail"},"geometry":{"type":"Point","coordinates":[-114.64719,52.226199]}},{"type":"Feature","id":"20260823_155836","properties":{"file":"20260823_155836","taken":"2026-08-23T15:58:36-06:00","title":null,"caption":null,"near":"Ring Road (MM, FF, CC)"},"geometry":{"type":"Point","coordinates":[-114.64845,52.224806]}},{"type":"Feature","id":"20260823_155858","properties":{"file":"20260823_155858","taken":"2026-08-23T15:58:58-06:00","title":null,"caption":null,"near":"Ring Road (MM, FF, CC)"},"geometry":{"type":"Point","coordinates":[-114.64845,52.224806]}},{"type":"Feature","id":"20260823_155903","properties":{"file":"20260823_155903","taken":"2026-08-23T15:59:03-06:00","title":null,"caption":null,"near":"Ring Road (MM, FF, CC)"},"geometry":{"type":"Point","coordinates":[-114.64845,52.224806]}},{"type":"Feature","id":"20260823_155927","properties":{"file":"20260823_155927","taken":"2026-08-23T15:59:27-06:00","title":null,"caption":null,"near":"Shooting range"},"geometry":{"type":"Point","coordinates":[-114.648171,52.22506]}},{"type":"Feature","id":"20260823_155956","properties":{"file":"20260823_155956","taken":"2026-08-23T15:59:56-06:00","title":null,"caption":null,"near":"Shooting range"},"geometry":{"type":"Point","coordinates":[-114.648171,52.22506]}},{"type":"Feature","id":"20260823_160014","properties":{"file":"20260823_160014","taken":"2026-08-23T16:00:14-06:00","title":null,"caption":null,"near":"Shooting range"},"geometry":{"type":"Point","coordinates":[-114.648171,52.22506]}},{"type":"Feature","id":"20260823_160036","properties":{"file":"20260823_160036","taken":"2026-08-23T16:00:36-06:00","title":null,"caption":null,"near":"Shooting range"},"geometry":{"type":"Point","coordinates":[-114.648128,52.225393]}},{"type":"Feature","id":"20260823_160055","properties":{"file":"20260823_160055","taken":"2026-08-23T16:00:55-06:00","title":null,"caption":null,"near":"Shooting range"},"geometry":{"type":"Point","coordinates":[-114.648128,52.225393]}},{"type":"Feature","id":"20260823_160110","properties":{"file":"20260823_160110","taken":"2026-08-23T16:01:10-06:00","title":null,"caption":null,"near":"Shooting range"},"geometry":{"type":"Point","coordinates":[-114.648128,52.225393]}},{"type":"Feature","id":"20260823_160132","properties":{"file":"20260823_160132","taken":"2026-08-23T16:01:32-06:00","title":null,"caption":null,"near":"Cougar Bridge Trail"},"geometry":{"type":"Point","coordinates":[-114.648261,52.225726]}},{"type":"Feature","id":"20260823_160144","properties":{"file":"20260823_160144","taken":"2026-08-23T16:01:43-06:00","title":null,"caption":null,"near":"Cougar Bridge Trail"},"geometry":{"type":"Point","coordinates":[-114.648261,52.225726]}},{"type":"Feature","id":"20260823_160229","properties":{"file":"20260823_160229","taken":"2026-08-23T16:02:29-06:00","title":null,"caption":null,"near":"Shooting range"},"geometry":{"type":"Point","coordinates":[-114.647928,52.225577]}},{"type":"Feature","id":"20260823_160255","properties":{"file":"20260823_160255","taken":"2026-08-23T16:02:55-06:00","title":null,"caption":null,"near":"Shooting range"},"geometry":{"type":"Point","coordinates":[-114.647928,52.225577]}},{"type":"Feature","id":"20260823_160321","properties":{"file":"20260823_160321","taken":"2026-08-23T16:03:21-06:00","title":null,"caption":null,"near":"Shooting range"},"geometry":{"type":"Point","coordinates":[-114.64752,52.225896]}},{"type":"Feature","id":"20260823_160326","properties":{"file":"20260823_160326","taken":"2026-08-23T16:03:26-06:00","title":null,"caption":null,"near":"Shooting range"},"geometry":{"type":"Point","coordinates":[-114.64752,52.225896]}},{"type":"Feature","id":"20260823_160404","properties":{"file":"20260823_160404","taken":"2026-08-23T16:04:05-06:00","title":null,"caption":null,"near":"Shooting range"},"geometry":{"type":"Point","coordinates":[-114.647506,52.225828]}},{"type":"Feature","id":"20260823_160444","properties":{"file":"20260823_160444","taken":"2026-08-23T16:04:45-06:00","title":null,"caption":null,"near":"Shooting range"},"geometry":{"type":"Point","coordinates":[-114.64747,52.225855]}},{"type":"Feature","id":"20260823_160459","properties":{"file":"20260823_160459","taken":"2026-08-23T16:04:59-06:00","title":null,"caption":null,"near":"Shooting range"},"geometry":{"type":"Point","coordinates":[-114.647367,52.22602]}},{"type":"Feature","id":"20260823_160531","properties":{"file":"20260823_160531","taken":"2026-08-23T16:05:31-06:00","title":null,"caption":null,"near":"Hill behind house"},"geometry":{"type":"Point","coordinates":[-114.647186,52.225835]}},{"type":"Feature","id":"20260823_160545","properties":{"file":"20260823_160545","taken":"2026-08-23T16:05:45-06:00","title":null,"caption":null,"near":"Hill behind house"},"geometry":{"type":"Point","coordinates":[-114.647186,52.225835]}},{"type":"Feature","id":"20260823_160556","properties":{"file":"20260823_160556","taken":"2026-08-23T16:05:56-06:00","title":null,"caption":null,"near":"Hill behind house"},"geometry":{"type":"Point","coordinates":[-114.647186,52.225835]}},{"type":"Feature","id":"20260823_160612","properties":{"file":"20260823_160612","taken":"2026-08-23T16:06:12-06:00","title":null,"caption":null,"near":"Hill behind house"},"geometry":{"type":"Point","coordinates":[-114.647186,52.225835]}},{"type":"Feature","id":"20260823_160658","properties":{"file":"20260823_160658","taken":"2026-08-23T16:06:58-06:00","title":null,"caption":null,"near":"Shooting range"},"geometry":{"type":"Point","coordinates":[-114.647254,52.225746]}},{"type":"Feature","id":"20260823_161008","properties":{"file":"20260823_161008","taken":"2026-08-23T16:10:09-06:00","title":null,"caption":null,"near":"Golf range trail"},"geometry":{"type":"Point","coordinates":[-114.650368,52.227447]}},{"type":"Feature","id":"20260823_161247","properties":{"file":"20260823_161247","taken":"2026-08-23T16:12:47-06:00","title":null,"caption":null,"near":"Larry's Crossing"},"geometry":{"type":"Point","coordinates":[-114.652113,52.2284]}},{"type":"Feature","id":"20260823_161256","properties":{"file":"20260823_161256","taken":"2026-08-23T16:12:56-06:00","title":null,"caption":null,"near":"Larry's Crossing"},"geometry":{"type":"Point","coordinates":[-114.652113,52.2284]}},{"type":"Feature","id":"20260823_161304","properties":{"file":"20260823_161304","taken":"2026-08-23T16:13:04-06:00","title":null,"caption":null,"near":"Larry's Crossing"},"geometry":{"type":"Point","coordinates":[-114.652113,52.2284]}},{"type":"Feature","id":"20260823_161313","properties":{"file":"20260823_161313","taken":"2026-08-23T16:13:13-06:00","title":null,"caption":null,"near":"Larry's Crossing"},"geometry":{"type":"Point","coordinates":[-114.652113,52.2284]}},{"type":"Feature","id":"20260823_161320","properties":{"file":"20260823_161320","taken":"2026-08-23T16:13:20-06:00","title":null,"caption":null,"near":"Larry's Crossing"},"geometry":{"type":"Point","coordinates":[-114.652113,52.2284]}},{"type":"Feature","id":"20260823_161326","properties":{"file":"20260823_161326","taken":"2026-08-23T16:13:26-06:00","title":null,"caption":null,"near":"Larry's Crossing"},"geometry":{"type":"Point","coordinates":[-114.652113,52.2284]}},{"type":"Feature","id":"20260823_161332","properties":{"file":"20260823_161332","taken":"2026-08-23T16:13:32-06:00","title":null,"caption":null,"near":"Larry's Crossing"},"geometry":{"type":"Point","coordinates":[-114.652113,52.2284]}},{"type":"Feature","id":"20260823_161407","properties":{"file":"20260823_161407","taken":"2026-08-23T16:14:07-06:00","title":null,"caption":null,"near":"Larry's Crossing"},"geometry":{"type":"Point","coordinates":[-114.652113,52.228381]}},{"type":"Feature","id":"20260823_161428","properties":{"file":"20260823_161428","taken":"2026-08-23T16:14:28-06:00","title":null,"caption":null,"near":"Larry's Crossing"},"geometry":{"type":"Point","coordinates":[-114.652113,52.228381]}},{"type":"Feature","id":"20260823_161432","properties":{"file":"20260823_161432","taken":"2026-08-23T16:14:32-06:00","title":null,"caption":null,"near":"Larry's Crossing"},"geometry":{"type":"Point","coordinates":[-114.652113,52.228381]}},{"type":"Feature","id":"20260823_161446","properties":{"file":"20260823_161446","taken":"2026-08-23T16:14:46-06:00","title":null,"caption":null,"near":"Field Highway Trail"},"geometry":{"type":"Point","coordinates":[-114.651787,52.228517]}},{"type":"Feature","id":"20260823_161603","properties":{"file":"20260823_161603","taken":"2026-08-23T16:16:03-06:00","title":null,"caption":null,"near":"Field Highway Trail"},"geometry":{"type":"Point","coordinates":[-114.651026,52.228453]}},{"type":"Feature","id":"20260823_162033","properties":{"file":"20260823_162033","taken":"2026-08-23T16:20:33-06:00","title":null,"caption":null,"near":"Field Highway Trail"},"geometry":{"type":"Point","coordinates":[-114.646917,52.226592]}},{"type":"Feature","id":"20260823_162046","properties":{"file":"20260823_162046","taken":"2026-08-23T16:20:46-06:00","title":null,"caption":null,"near":"Field Highway Trail"},"geometry":{"type":"Point","coordinates":[-114.646806,52.226488]}},{"type":"Feature","id":"20260823_162201","properties":{"file":"20260823_162201","taken":"2026-08-23T16:22:01-06:00","title":null,"caption":null,"near":"Driveway & Main Yard"},"geometry":{"type":"Point","coordinates":[-114.646369,52.226119]}},{"type":"Feature","id":"20260823_162301","properties":{"file":"20260823_162301","taken":"2026-08-23T16:23:01-06:00","title":null,"caption":null,"near":"Driveway & Main Yard"},"geometry":{"type":"Point","coordinates":[-114.646181,52.225774]}},{"type":"Feature","id":"20260823_162333","properties":{"file":"20260823_162333","taken":"2026-08-23T16:23:33-06:00","title":null,"caption":null,"near":"Driveway & Main Yard"},"geometry":{"type":"Point","coordinates":[-114.646208,52.225793]}},{"type":"Feature","id":"20260823_162343","properties":{"file":"20260823_162343","taken":"2026-08-23T16:23:43-06:00","title":null,"caption":null,"near":"Driveway & Main Yard"},"geometry":{"type":"Point","coordinates":[-114.646208,52.225793]}},{"type":"Feature","id":"20260823_162348","properties":{"file":"20260823_162348","taken":"2026-08-23T16:23:48-06:00","title":null,"caption":null,"near":"Driveway & Main Yard"},"geometry":{"type":"Point","coordinates":[-114.646208,52.225793]}},{"type":"Feature","id":"20260823_162411","properties":{"file":"20260823_162411","taken":"2026-08-23T16:24:11-06:00","title":null,"caption":null,"near":"Driveway & Main Yard"},"geometry":{"type":"Point","coordinates":[-114.646208,52.225793]}},{"type":"Feature","id":"20260823_162414","properties":{"file":"20260823_162414","taken":"2026-08-23T16:24:14-06:00","title":null,"caption":null,"near":"Driveway & Main Yard"},"geometry":{"type":"Point","coordinates":[-114.646208,52.225793]}},{"type":"Feature","id":"20260823_162419","properties":{"file":"20260823_162419","taken":"2026-08-23T16:24:19-06:00","title":null,"caption":null,"near":"Driveway & Main Yard"},"geometry":{"type":"Point","coordinates":[-114.646208,52.225793]}},{"type":"Feature","id":"20260823_162428","properties":{"file":"20260823_162428","taken":"2026-08-23T16:24:28-06:00","title":null,"caption":null,"near":"Driveway & Main Yard"},"geometry":{"type":"Point","coordinates":[-114.646208,52.225793]}},{"type":"Feature","id":"20260823_162434","properties":{"file":"20260823_162434","taken":"2026-08-23T16:24:33-06:00","title":null,"caption":null,"near":"Driveway & Main Yard"},"geometry":{"type":"Point","coordinates":[-114.646243,52.225811]}},{"type":"Feature","id":"20260823_162438","properties":{"file":"20260823_162438","taken":"2026-08-23T16:24:38-06:00","title":null,"caption":null,"near":"Driveway & Main Yard"},"geometry":{"type":"Point","coordinates":[-114.646243,52.225811]}},{"type":"Feature","id":"20260823_162448","properties":{"file":"20260823_162448","taken":"2026-08-23T16:24:48-06:00","title":null,"caption":null,"near":"Driveway & Main Yard"},"geometry":{"type":"Point","coordinates":[-114.646243,52.225811]}},{"type":"Feature","id":"20260823_162458","properties":{"file":"20260823_162458","taken":"2026-08-23T16:24:58-06:00","title":null,"caption":null,"near":"Driveway & Main Yard"},"geometry":{"type":"Point","coordinates":[-114.646243,52.225811]}},{"type":"Feature","id":"20260823_162511","properties":{"file":"20260823_162511","taken":"2026-08-23T16:25:10-06:00","title":null,"caption":null,"near":"Driveway & Main Yard"},"geometry":{"type":"Point","coordinates":[-114.646243,52.225811]}},{"type":"Feature","id":"20260823_162517","properties":{"file":"20260823_162517","taken":"2026-08-23T16:25:17-06:00","title":null,"caption":null,"near":"Driveway & Main Yard"},"geometry":{"type":"Point","coordinates":[-114.646243,52.225811]}},{"type":"Feature","id":"20260823_162528","properties":{"file":"20260823_162528","taken":"2026-08-23T16:25:28-06:00","title":null,"caption":null,"near":"Driveway & Main Yard"},"geometry":{"type":"Point","coordinates":[-114.646242,52.225813]}},{"type":"Feature","id":"20260823_162539","properties":{"file":"20260823_162539","taken":"2026-08-23T16:25:39-06:00","title":null,"caption":null,"near":"Driveway & Main Yard"},"geometry":{"type":"Point","coordinates":[-114.646259,52.225824]}},{"type":"Feature","id":"20260905_144020","properties":{"file":"20260905_144020","taken":"2026-09-05T14:40:20-06:00","title":null,"caption":null,"near":"Field Highway Trail"},"geometry":{"type":"Point","coordinates":[-114.651852,52.228534]}},{"type":"Feature","id":"20260905_144055","properties":{"file":"20260905_144055","taken":"2026-09-05T14:40:55-06:00","title":null,"caption":null,"near":"Tree Farm Trail"},"geometry":{"type":"Point","coordinates":[-114.652683,52.230336]}},{"type":"Feature","id":"20260905_144235","properties":{"file":"20260905_144235","taken":"2026-09-05T14:42:35-06:00","title":null,"caption":null,"near":"Ring Road (MM, FF, CC)"},"geometry":{"type":"Point","coordinates":[-114.653049,52.227814]}},{"type":"Feature","id":"20260905_144237","properties":{"file":"20260905_144237","taken":"2026-09-05T14:42:37-06:00","title":null,"caption":null,"near":"Ring Road (MM, FF, CC)"},"geometry":{"type":"Point","coordinates":[-114.653051,52.227808]}},{"type":"Feature","id":"20260905_144239","properties":{"file":"20260905_144239","taken":"2026-09-05T14:42:39-06:00","title":null,"caption":null,"near":"Cabin Trail"},"geometry":{"type":"Point","coordinates":[-114.653065,52.227787]}},{"type":"Feature","id":"20260905_144249","properties":{"file":"20260905_144249","taken":"2026-09-05T14:42:49-06:00","title":null,"caption":null,"near":"Cabin Trail"},"geometry":{"type":"Point","coordinates":[-114.653161,52.227517]}},{"type":"Feature","id":"20260905_144254","properties":{"file":"20260905_144254","taken":"2026-09-05T14:42:54-06:00","title":null,"caption":null,"near":"Cabin Trail"},"geometry":{"type":"Point","coordinates":[-114.653243,52.227401]}},{"type":"Feature","id":"20260905_144359","properties":{"file":"20260905_144359","taken":"2026-09-05T14:43:58-06:00","title":null,"caption":null,"near":"Cabin Trail"},"geometry":{"type":"Point","coordinates":[-114.652995,52.225267]}},{"type":"Feature","id":"20260905_144404","properties":{"file":"20260905_144404","taken":"2026-09-05T14:44:04-06:00","title":null,"caption":null,"near":"Cabin Trail"},"geometry":{"type":"Point","coordinates":[-114.652945,52.225256]}},{"type":"Feature","id":"20260905_144457","properties":{"file":"20260905_144457","taken":"2026-09-05T14:44:57-06:00","title":null,"caption":null,"near":"Cabin Trail"},"geometry":{"type":"Point","coordinates":[-114.650414,52.224652]}},{"type":"Feature","id":"20260905_144500","properties":{"file":"20260905_144500","taken":"2026-09-05T14:45:00-06:00","title":null,"caption":null,"near":"Cabin Trail"},"geometry":{"type":"Point","coordinates":[-114.65041,52.224651]}},{"type":"Feature","id":"20260905_144525","properties":{"file":"20260905_144525","taken":"2026-09-05T14:45:25-06:00","title":null,"caption":null,"near":"Cabin Trail"},"geometry":{"type":"Point","coordinates":[-114.64959,52.224961]}},{"type":"Feature","id":"20260905_144527","properties":{"file":"20260905_144527","taken":"2026-09-05T14:45:27-06:00","title":null,"caption":null,"near":"Cabin Trail"},"geometry":{"type":"Point","coordinates":[-114.64959,52.224958]}},{"type":"Feature","id":"20260905_144647","properties":{"file":"20260905_144647","taken":"2026-09-05T14:46:46-06:00","title":null,"caption":null,"near":"Cabin Trail"},"geometry":{"type":"Point","coordinates":[-114.649462,52.225055]}},{"type":"Feature","id":"20260905_144735","properties":{"file":"20260905_144735","taken":"2026-09-05T14:47:35-06:00","title":null,"caption":null,"near":"Cabin Perimeter"},"geometry":{"type":"Point","coordinates":[-114.649322,52.22492]}},{"type":"Feature","id":"20260905_144744","properties":{"file":"20260905_144744","taken":"2026-09-05T14:47:44-06:00","title":null,"caption":null,"near":"Cabin Perimeter"},"geometry":{"type":"Point","coordinates":[-114.649322,52.22492]}},{"type":"Feature","id":"20260905_144753","properties":{"file":"20260905_144753","taken":"2026-09-05T14:47:53-06:00","title":null,"caption":null,"near":"Cabin Perimeter"},"geometry":{"type":"Point","coordinates":[-114.649322,52.22492]}},{"type":"Feature","id":"20260905_144806","properties":{"file":"20260905_144806","taken":"2026-09-05T14:48:06-06:00","title":null,"caption":null,"near":"Cabin Perimeter"},"geometry":{"type":"Point","coordinates":[-114.649322,52.22492]}},{"type":"Feature","id":"20260905_144813","properties":{"file":"20260905_144813","taken":"2026-09-05T14:48:13-06:00","title":null,"caption":null,"near":"Cabin Perimeter"},"geometry":{"type":"Point","coordinates":[-114.649322,52.22492]}},{"type":"Feature","id":"20260905_144820","properties":{"file":"20260905_144820","taken":"2026-09-05T14:48:20-06:00","title":null,"caption":null,"near":"Cabin Perimeter"},"geometry":{"type":"Point","coordinates":[-114.649322,52.22492]}},{"type":"Feature","id":"20260905_144830","properties":{"file":"20260905_144830","taken":"2026-09-05T14:48:30-06:00","title":null,"caption":null,"near":"Cabin Perimeter"},"geometry":{"type":"Point","coordinates":[-114.649073,52.225033]}},{"type":"Feature","id":"20260905_144835","properties":{"file":"20260905_144835","taken":"2026-09-05T14:48:35-06:00","title":null,"caption":null,"near":"Cabin Perimeter"},"geometry":{"type":"Point","coordinates":[-114.649073,52.225033]}},{"type":"Feature","id":"20260905_144846","properties":{"file":"20260905_144846","taken":"2026-09-05T14:48:45-06:00","title":null,"caption":null,"near":"Cabin Perimeter"},"geometry":{"type":"Point","coordinates":[-114.649073,52.225033]}},{"type":"Feature","id":"20260905_144901","properties":{"file":"20260905_144901","taken":"2026-09-05T14:49:00-06:00","title":null,"caption":null,"near":"Cabin Perimeter"},"geometry":{"type":"Point","coordinates":[-114.649073,52.225033]}},{"type":"Feature","id":"20260905_144908","properties":{"file":"20260905_144908","taken":"2026-09-05T14:49:08-06:00","title":null,"caption":null,"near":"Cabin Perimeter"},"geometry":{"type":"Point","coordinates":[-114.649073,52.225033]}},{"type":"Feature","id":"20260905_144914","properties":{"file":"20260905_144914","taken":"2026-09-05T14:49:14-06:00","title":null,"caption":null,"near":"Cabin Perimeter"},"geometry":{"type":"Point","coordinates":[-114.649073,52.225033]}},{"type":"Feature","id":"20260905_144923","properties":{"file":"20260905_144923","taken":"2026-09-05T14:49:23-06:00","title":null,"caption":null,"near":"Cabin Perimeter"},"geometry":{"type":"Point","coordinates":[-114.649286,52.225105]}},{"type":"Feature","id":"20260905_144934","properties":{"file":"20260905_144934","taken":"2026-09-05T14:49:33-06:00","title":null,"caption":null,"near":"Cabin Perimeter"},"geometry":{"type":"Point","coordinates":[-114.649286,52.225105]}},{"type":"Feature","id":"20260905_145220","properties":{"file":"20260905_145220","taken":"2026-09-05T14:52:20-06:00","title":null,"caption":null,"near":"Cabin Perimeter"},"geometry":{"type":"Point","coordinates":[-114.649078,52.224971]}},{"type":"Feature","id":"20260905_145221","properties":{"file":"20260905_145221","taken":"2026-09-05T14:52:21-06:00","title":null,"caption":null,"near":"Cabin Perimeter"},"geometry":{"type":"Point","coordinates":[-114.649078,52.224971]}},{"type":"Feature","id":"20260905_145308","properties":{"file":"20260905_145308","taken":"2026-09-05T14:53:08-06:00","title":null,"caption":null,"near":"Cabin Perimeter"},"geometry":{"type":"Point","coordinates":[-114.649222,52.225098]}},{"type":"Feature","id":"20260905_145833","properties":{"file":"20260905_145833","taken":"2026-09-05T14:58:33-06:00","title":null,"caption":null,"near":"Ring Road (MM, FF, CC)"},"geometry":{"type":"Point","coordinates":[-114.648754,52.224874]}},{"type":"Feature","id":"20260905_150037","properties":{"file":"20260905_150037","taken":"2026-09-05T15:00:37-06:00","title":null,"caption":null,"near":"Ring Road (MM, FF, CC)"},"geometry":{"type":"Point","coordinates":[-114.648089,52.224298]}},{"type":"Feature","id":"20260905_150221","properties":{"file":"20260905_150221","taken":"2026-09-05T15:02:21-06:00","title":null,"caption":null,"near":"Ring Road (MM, FF, CC)"},"geometry":{"type":"Point","coordinates":[-114.651556,52.224281]}},{"type":"Feature","id":"20260905_150224","properties":{"file":"20260905_150224","taken":"2026-09-05T15:02:24-06:00","title":null,"caption":null,"near":"Ring Road (MM, FF, CC)"},"geometry":{"type":"Point","coordinates":[-114.651553,52.224281]}},{"type":"Feature","id":"20260905_151537","properties":{"file":"20260905_151537","taken":"2026-09-05T15:15:37-06:00","title":null,"caption":null,"near":"Payton and Caine"},"geometry":{"type":"Point","coordinates":[-114.64928,52.225294]}},{"type":"Feature","id":"20260905_151543","properties":{"file":"20260905_151543","taken":"2026-09-05T15:15:43-06:00","title":null,"caption":null,"near":"Payton and Caine"},"geometry":{"type":"Point","coordinates":[-114.64928,52.225294]}},{"type":"Feature","id":"20260905_151850","properties":{"file":"20260905_151850","taken":"2026-09-05T15:18:50-06:00","title":null,"caption":null,"near":"Payton and Caine"},"geometry":{"type":"Point","coordinates":[-114.653273,52.227229]}},{"type":"Feature","id":"20260905_151854","properties":{"file":"20260905_151854","taken":"2026-09-05T15:18:54-06:00","title":null,"caption":null,"near":"Payton and Caine"},"geometry":{"type":"Point","coordinates":[-114.653273,52.227229]}},{"type":"Feature","id":"20260905_151913","properties":{"file":"20260905_151913","taken":"2026-09-05T15:19:13-06:00","title":null,"caption":null,"near":"Payton and Caine"},"geometry":{"type":"Point","coordinates":[-114.653273,52.227229]}},{"type":"Feature","id":"20260905_151917","properties":{"file":"20260905_151917","taken":"2026-09-05T15:19:17-06:00","title":null,"caption":null,"near":"Payton and Caine"},"geometry":{"type":"Point","coordinates":[-114.653273,52.227229]}},{"type":"Feature","id":"20260905_151926","properties":{"file":"20260905_151926","taken":"2026-09-05T15:19:26-06:00","title":null,"caption":null,"near":"Lor Trail"},"geometry":{"type":"Point","coordinates":[-114.653471,52.227301]}},{"type":"Feature","id":"20260905_151930","properties":{"file":"20260905_151930","taken":"2026-09-05T15:19:30-06:00","title":null,"caption":null,"near":"Lor Trail"},"geometry":{"type":"Point","coordinates":[-114.653473,52.227317]}},{"type":"Feature","id":"20260905_151935","properties":{"file":"20260905_151935","taken":"2026-09-05T15:19:34-06:00","title":null,"caption":null,"near":"Lor Trail"},"geometry":{"type":"Point","coordinates":[-114.653473,52.227317]}},{"type":"Feature","id":"20260905_152035","properties":{"file":"20260905_152035","taken":"2026-09-05T15:20:35-06:00","title":null,"caption":null,"near":"Ring Road (MM, FF, CC)"},"geometry":{"type":"Point","coordinates":[-114.653188,52.227812]}},{"type":"Feature","id":"20260905_152038","properties":{"file":"20260905_152038","taken":"2026-09-05T15:20:38-06:00","title":null,"caption":null,"near":"Ring Road (MM, FF, CC)"},"geometry":{"type":"Point","coordinates":[-114.653185,52.22781]}},{"type":"Feature","id":"20260905_152225","properties":{"file":"20260905_152225","taken":"2026-09-05T15:22:25-06:00","title":null,"caption":null,"near":"Roper trail"},"geometry":{"type":"Point","coordinates":[-114.653917,52.226047]}},{"type":"Feature","id":"20260905_152228","properties":{"file":"20260905_152228","taken":"2026-09-05T15:22:28-06:00","title":null,"caption":null,"near":"Roper trail"},"geometry":{"type":"Point","coordinates":[-114.653918,52.226043]}},{"type":"Feature","id":"20260905_152702","properties":{"file":"20260905_152702","taken":"2026-09-05T15:27:02-06:00","title":null,"caption":null,"near":"Cabin Trail"},"geometry":{"type":"Point","coordinates":[-114.653609,52.226803]}},{"type":"Feature","id":"20260905_152703","properties":{"file":"20260905_152703","taken":"2026-09-05T15:27:04-06:00","title":null,"caption":null,"near":"Cabin Trail"},"geometry":{"type":"Point","coordinates":[-114.653609,52.226803]}},{"type":"Feature","id":"20260905_152826","properties":{"file":"20260905_152826","taken":"2026-09-05T15:28:26-06:00","title":null,"caption":null,"near":"Tracy Trail"},"geometry":{"type":"Point","coordinates":[-114.652314,52.2258]}},{"type":"Feature","id":"20260905_152916","properties":{"file":"20260905_152916","taken":"2026-09-05T15:29:16-06:00","title":null,"caption":null,"near":"Tracy Trail"},"geometry":{"type":"Point","coordinates":[-114.650901,52.225042]}},{"type":"Feature","id":"20260905_152919","properties":{"file":"20260905_152919","taken":"2026-09-05T15:29:19-06:00","title":null,"caption":null,"near":"Tracy Trail"},"geometry":{"type":"Point","coordinates":[-114.650898,52.225041]}},{"type":"Feature","id":"20260905_153119","properties":{"file":"20260905_153119","taken":"2026-09-05T15:31:18-06:00","title":null,"caption":null,"near":"Zoey Trail"},"geometry":{"type":"Point","coordinates":[-114.649403,52.225201]}},{"type":"Feature","id":"20260905_153123","properties":{"file":"20260905_153123","taken":"2026-09-05T15:31:23-06:00","title":null,"caption":null,"near":"Zoey Trail"},"geometry":{"type":"Point","coordinates":[-114.6494,52.225203]}},{"type":"Feature","id":"20260905_153303","properties":{"file":"20260905_153303","taken":"2026-09-05T15:33:03-06:00","title":null,"caption":null,"near":"Finley Trail"},"geometry":{"type":"Point","coordinates":[-114.651947,52.226179]}},{"type":"Feature","id":"20260905_153319","properties":{"file":"20260905_153319","taken":"2026-09-05T15:33:18-06:00","title":null,"caption":null,"near":"Finley Trail"},"geometry":{"type":"Point","coordinates":[-114.651935,52.226181]}},{"type":"Feature","id":"20260905_153424","properties":{"file":"20260905_153424","taken":"2026-09-05T15:34:24-06:00","title":null,"caption":null,"near":"TrailHead"},"geometry":{"type":"Point","coordinates":[-114.651896,52.225894]}},{"type":"Feature","id":"20260905_153427","properties":{"file":"20260905_153427","taken":"2026-09-05T15:34:27-06:00","title":null,"caption":null,"near":"TrailHead"},"geometry":{"type":"Point","coordinates":[-114.651896,52.225893]}},{"type":"Feature","id":"20260905_153648","properties":{"file":"20260905_153648","taken":"2026-09-05T15:36:48-06:00","title":null,"caption":null,"near":"Finley Trail"},"geometry":{"type":"Point","coordinates":[-114.649592,52.225052]}},{"type":"Feature","id":"20260905_153652","properties":{"file":"20260905_153652","taken":"2026-09-05T15:36:52-06:00","title":null,"caption":null,"near":"Finley Trail"},"geometry":{"type":"Point","coordinates":[-114.649589,52.225055]}},{"type":"Feature","id":"20260905_153654","properties":{"file":"20260905_153654","taken":"2026-09-05T15:36:54-06:00","title":null,"caption":null,"near":"Finley Trail"},"geometry":{"type":"Point","coordinates":[-114.649588,52.225055]}},{"type":"Feature","id":"20260905_153903","properties":{"file":"20260905_153903","taken":"2026-09-05T15:39:03-06:00","title":null,"caption":null,"near":"Finley Trail"},"geometry":{"type":"Point","coordinates":[-114.651953,52.226182]}},{"type":"Feature","id":"20260905_153922","properties":{"file":"20260905_153922","taken":"2026-09-05T15:39:22-06:00","title":null,"caption":null,"near":"Finley Trail"},"geometry":{"type":"Point","coordinates":[-114.651953,52.226182]}},{"type":"Feature","id":"20260905_153932","properties":{"file":"20260905_153932","taken":"2026-09-05T15:39:32-06:00","title":null,"caption":null,"near":"Finley Trail"},"geometry":{"type":"Point","coordinates":[-114.651953,52.226182]}},{"type":"Feature","id":"20260905_154313","properties":{"file":"20260905_154313","taken":"2026-09-05T15:43:13-06:00","title":null,"caption":null,"near":"Taylor Trail"},"geometry":{"type":"Point","coordinates":[-114.652297,52.225771]}},{"type":"Feature","id":"20260905_154316","properties":{"file":"20260905_154316","taken":"2026-09-05T15:43:16-06:00","title":null,"caption":null,"near":"Taylor Trail"},"geometry":{"type":"Point","coordinates":[-114.652294,52.225773]}},{"type":"Feature","id":"20260905_154524","properties":{"file":"20260905_154524","taken":"2026-09-05T15:45:24-06:00","title":null,"caption":null,"near":"Taylor Trail"},"geometry":{"type":"Point","coordinates":[-114.653711,52.225897]}},{"type":"Feature","id":"20260905_154529","properties":{"file":"20260905_154529","taken":"2026-09-05T15:45:29-06:00","title":null,"caption":null,"near":"Taylor Trail"},"geometry":{"type":"Point","coordinates":[-114.653711,52.225897]}},{"type":"Feature","id":"20260905_155227","properties":{"file":"20260905_155227","taken":"2026-09-05T15:52:27-06:00","title":null,"caption":null,"near":"Tracy Trail"},"geometry":{"type":"Point","coordinates":[-114.652947,52.226533]}},{"type":"Feature","id":"20260905_155300","properties":{"file":"20260905_155300","taken":"2026-09-05T15:53:00-06:00","title":null,"caption":null,"near":"TrailHead"},"geometry":{"type":"Point","coordinates":[-114.652976,52.226669]}},{"type":"Feature","id":"20260905_155302","properties":{"file":"20260905_155302","taken":"2026-09-05T15:53:02-06:00","title":null,"caption":null,"near":"TrailHead"},"geometry":{"type":"Point","coordinates":[-114.652976,52.226669]}},{"type":"Feature","id":"20260905_160852","properties":{"file":"20260905_160852","taken":"2026-09-05T16:08:51-06:00","title":null,"caption":null,"near":"Cabin Trail"},"geometry":{"type":"Point","coordinates":[-114.653072,52.227865]}},{"type":"Feature","id":"20260905_160857","properties":{"file":"20260905_160857","taken":"2026-09-05T16:08:57-06:00","title":null,"caption":null,"near":"Cabin Trail"},"geometry":{"type":"Point","coordinates":[-114.653069,52.227865]}},{"type":"Feature","id":"20260905_160944","properties":{"file":"20260905_160944","taken":"2026-09-05T16:09:44-06:00","title":null,"caption":null,"near":"Margaret Trail"},"geometry":{"type":"Point","coordinates":[-114.652783,52.227463]}},{"type":"Feature","id":"20260905_162033","properties":{"file":"20260905_162033","taken":"2026-09-05T16:20:33-06:00","title":null,"caption":null,"near":"E/W Flyover"},"geometry":{"type":"Point","coordinates":[-114.654729,52.224908]}},{"type":"Feature","id":"20260905_162036","properties":{"file":"20260905_162036","taken":"2026-09-05T16:20:36-06:00","title":null,"caption":null,"near":"E/W Flyover"},"geometry":{"type":"Point","coordinates":[-114.65473,52.224908]}},{"type":"Feature","id":"20260905_162301","properties":{"file":"20260905_162301","taken":"2026-09-05T16:23:01-06:00","title":null,"caption":null,"near":"Quarter Section Boundary"},"geometry":{"type":"Point","coordinates":[-114.656232,52.223928]}},{"type":"Feature","id":"20260905_162912","properties":{"file":"20260905_162912","taken":"2026-09-05T16:29:12-06:00","title":null,"caption":null,"near":"Larry's Crossing"},"geometry":{"type":"Point","coordinates":[-114.653244,52.229906]}},{"type":"Feature","id":"20260905_162916","properties":{"file":"20260905_162916","taken":"2026-09-05T16:29:16-06:00","title":null,"caption":null,"near":"Larry's Crossing"},"geometry":{"type":"Point","coordinates":[-114.653232,52.229902]}},{"type":"Feature","id":"20260905_162940","properties":{"file":"20260905_162940","taken":"2026-09-05T16:29:40-06:00","title":null,"caption":null,"near":"Larry's Crossing"},"geometry":{"type":"Point","coordinates":[-114.653696,52.229863]}},{"type":"Feature","id":"20260905_162944","properties":{"file":"20260905_162944","taken":"2026-09-05T16:29:44-06:00","title":null,"caption":null,"near":"Larry's Crossing"},"geometry":{"type":"Point","coordinates":[-114.653698,52.229862]}},{"type":"Feature","id":"20260905_163022","properties":{"file":"20260905_163022","taken":"2026-09-05T16:30:22-06:00","title":null,"caption":null,"near":"Larry's Crossing"},"geometry":{"type":"Point","coordinates":[-114.654878,52.229601]}},{"type":"Feature","id":"20260905_163024","properties":{"file":"20260905_163024","taken":"2026-09-05T16:30:24-06:00","title":null,"caption":null,"near":"Larry's Crossing"},"geometry":{"type":"Point","coordinates":[-114.654881,52.229601]}},{"type":"Feature","id":"20260905_163152","properties":{"file":"20260905_163152","taken":"2026-09-05T16:31:52-06:00","title":null,"caption":null,"near":"Skull Trail"},"geometry":{"type":"Point","coordinates":[-114.655587,52.228844]}},{"type":"Feature","id":"20260905_163153","properties":{"file":"20260905_163153","taken":"2026-09-05T16:31:54-06:00","title":null,"caption":null,"near":"Skull Trail"},"geometry":{"type":"Point","coordinates":[-114.655587,52.228845]}},{"type":"Feature","id":"20260905_164509","properties":{"file":"20260905_164509","taken":"2026-09-05T16:45:09-06:00","title":null,"caption":null,"near":"Skull Trail"},"geometry":{"type":"Point","coordinates":[-114.653581,52.22745]}},{"type":"Feature","id":"20260905_164609","properties":{"file":"20260905_164609","taken":"2026-09-05T16:46:09-06:00","title":null,"caption":null,"near":null},"geometry":{"type":"Point","coordinates":[-114.653959,52.228842]}},{"type":"Feature","id":"20260905_164627","properties":{"file":"20260905_164627","taken":"2026-09-05T16:46:27-06:00","title":null,"caption":null,"near":null},"geometry":{"type":"Point","coordinates":[-114.653931,52.228837]}},{"type":"Feature","id":"20260905_165657","properties":{"file":"20260905_165657","taken":"2026-09-05T16:56:57-06:00","title":null,"caption":null,"near":"Driveway & Main Yard"},"geometry":{"type":"Point","coordinates":[-114.646347,52.225801]}},{"type":"Feature","id":"20260905_165658","properties":{"file":"20260905_165658","taken":"2026-09-05T16:56:58-06:00","title":null,"caption":null,"near":"Driveway & Main Yard"},"geometry":{"type":"Point","coordinates":[-114.646347,52.225801]}},{"type":"Feature","id":"20260905_165721","properties":{"file":"20260905_165721","taken":"2026-09-05T16:57:21-06:00","title":null,"caption":null,"near":"Driveway & Main Yard"},"geometry":{"type":"Point","coordinates":[-114.646347,52.225801]}},{"type":"Feature","id":"20260905_165729","properties":{"file":"20260905_165729","taken":"2026-09-05T16:57:30-06:00","title":null,"caption":null,"near":"Driveway & Main Yard"},"geometry":{"type":"Point","coordinates":[-114.646347,52.225801]}},{"type":"Feature","id":"20260905_165757","properties":{"file":"20260905_165757","taken":"2026-09-05T16:57:57-06:00","title":null,"caption":null,"near":"Driveway & Main Yard"},"geometry":{"type":"Point","coordinates":[-114.646387,52.225828]}},{"type":"Feature","id":"20260905_165759","properties":{"file":"20260905_165759","taken":"2026-09-05T16:58:00-06:00","title":null,"caption":null,"near":"Driveway & Main Yard"},"geometry":{"type":"Point","coordinates":[-114.646387,52.225828]}},{"type":"Feature","id":"20260905_165805","properties":{"file":"20260905_165805","taken":"2026-09-05T16:58:05-06:00","title":null,"caption":null,"near":"Driveway & Main Yard"},"geometry":{"type":"Point","coordinates":[-114.646387,52.225828]}},{"type":"Feature","id":"20260905_165806","properties":{"file":"20260905_165806","taken":"2026-09-05T16:58:06-06:00","title":null,"caption":null,"near":"Driveway & Main Yard"},"geometry":{"type":"Point","coordinates":[-114.646387,52.225828]}},{"type":"Feature","id":"20260905_165814","properties":{"file":"20260905_165814","taken":"2026-09-05T16:58:14-06:00","title":null,"caption":null,"near":"Driveway & Main Yard"},"geometry":{"type":"Point","coordinates":[-114.646387,52.225828]}},{"type":"Feature","id":"20260905_165815","properties":{"file":"20260905_165815","taken":"2026-09-05T16:58:15-06:00","title":null,"caption":null,"near":"Driveway & Main Yard"},"geometry":{"type":"Point","coordinates":[-114.646387,52.225828]}},{"type":"Feature","id":"20260905_165822","properties":{"file":"20260905_165822","taken":"2026-09-05T16:58:22-06:00","title":null,"caption":null,"near":"Driveway & Main Yard"},"geometry":{"type":"Point","coordinates":[-114.646387,52.225828]}},{"type":"Feature","id":"20260905_165915","properties":{"file":"20260905_165915","taken":"2026-09-05T16:59:15-06:00","title":null,"caption":null,"near":"Hill behind house"},"geometry":{"type":"Point","coordinates":[-114.646691,52.225955]}},{"type":"Feature","id":"20260905_165917","properties":{"file":"20260905_165917","taken":"2026-09-05T16:59:18-06:00","title":null,"caption":null,"near":"Hill behind house"},"geometry":{"type":"Point","coordinates":[-114.646691,52.225955]}},{"type":"Feature","id":"20260905_165959","properties":{"file":"20260905_165959","taken":"2026-09-05T16:59:59-06:00","title":null,"caption":null,"near":"Hill behind house"},"geometry":{"type":"Point","coordinates":[-114.646848,52.225896]}},{"type":"Feature","id":"20260905_170001","properties":{"file":"20260905_170001","taken":"2026-09-05T17:00:01-06:00","title":null,"caption":null,"near":"Hill behind house"},"geometry":{"type":"Point","coordinates":[-114.646847,52.225888]}},{"type":"Feature","id":"20260905_170735","properties":{"file":"20260905_170735","taken":"2026-09-05T17:07:35-06:00","title":null,"caption":null,"near":"Outside Trail"},"geometry":{"type":"Point","coordinates":[-114.647649,52.224797]}},{"type":"Feature","id":"20260905_170737","properties":{"file":"20260905_170737","taken":"2026-09-05T17:07:37-06:00","title":null,"caption":null,"near":"Outside Trail"},"geometry":{"type":"Point","coordinates":[-114.64765,52.224797]}},{"type":"Feature","id":"20260905_171643","properties":{"file":"20260905_171643","taken":"2026-09-05T17:16:44-06:00","title":null,"caption":null,"near":"Cougar Bridge Trail"},"geometry":{"type":"Point","coordinates":[-114.648306,52.225706]}},{"type":"Feature","id":"20260905_171657","properties":{"file":"20260905_171657","taken":"2026-09-05T17:16:58-06:00","title":null,"caption":null,"near":"Cougar Bridge Trail"},"geometry":{"type":"Point","coordinates":[-114.648316,52.225707]}},{"type":"Feature","id":"20260905_171702","properties":{"file":"20260905_171702","taken":"2026-09-05T17:17:03-06:00","title":null,"caption":null,"near":"Cougar Bridge Trail"},"geometry":{"type":"Point","coordinates":[-114.648316,52.225707]}},{"type":"Feature","id":"20260905_171854","properties":{"file":"20260905_171854","taken":"2026-09-05T17:18:54-06:00","title":null,"caption":null,"near":"Driveway & Main Yard"},"geometry":{"type":"Point","coordinates":[-114.646162,52.225761]}},{"type":"Feature","id":"20260905_171900","properties":{"file":"20260905_171900","taken":"2026-09-05T17:19:00-06:00","title":null,"caption":null,"near":"Driveway & Main Yard"},"geometry":{"type":"Point","coordinates":[-114.646162,52.225761]}}]}