{"type":"FeatureCollection","features":[{"type":"Feature","id":"spot-01","properties":{"name":"House & Yard","icon":"house","story":"","hero":"20260823_141340","photos":["20260823_141340","20260823_141349","20260823_141412","20260823_141433","20260823_141442","20260823_141455","20260823_141504","20260823_141519","20260823_141755","20260823_141821","20260823_141852","20260823_141931","20260823_141951","20260823_142026","20260823_142038","20260823_142050","20260823_143502","20260823_143508","20260823_143530","20260823_162301","20260823_162333","20260823_162343","20260823_162348","20260823_162411","20260823_162414","20260823_162419","20260823_162428","20260823_162434","20260823_162438","20260823_162448","20260823_162458","20260823_162511","20260823_162517","20260823_162528","20260823_162539","20260905_171854","20260905_171900"],"featured":true,"guess":true,"moved":false},"geometry":{"type":"Point","coordinates":[-114.646125,52.225826]}},{"type":"Feature","id":"spot-02","properties":{"name":"Back Deck & Garden","icon":"garden","story":"","hero":"20260823_142102","photos":["20260823_142102","20260823_142113","20260823_142123","20260823_142132","20260823_142142","20260823_142150","20260823_142311","20260823_142317","20260823_142337","20260823_142348","20260823_142357","20260823_142402","20260823_143323","20260905_165657","20260905_165658","20260905_165721","20260905_165729","20260905_165757","20260905_165759","20260905_165805","20260905_165806","20260905_165814","20260905_165815","20260905_165822"],"featured":true,"guess":true,"moved":false},"geometry":{"type":"Point","coordinates":[-114.646408,52.225829]}},{"type":"Feature","id":"spot-03","properties":{"name":"Sitting Area & Flower Beds","icon":"bench","story":"","hero":"20260823_142411","photos":["20260823_142411","20260823_142418","20260823_142423","20260823_142436","20260823_142451","20260823_142500","20260823_142508","20260823_142517","20260823_142526","20260823_142533","20260823_142545","20260823_142604","20260905_165915","20260905_165917","20260905_165959","20260905_170001"],"featured":true,"guess":true,"moved":false},"geometry":{"type":"Point","coordinates":[-114.646732,52.225917]}},{"type":"Feature","id":"spot-04","properties":{"name":"Cabin Yard","icon":"cabin","story":"","hero":"20260905_144525","photos":["20260905_144525","20260905_144527","20260905_144647","20260905_144735","20260905_144744","20260905_144753","20260905_144806","20260905_144813","20260905_144820","20260905_153648","20260905_153652","20260905_153654"],"featured":true,"guess":true,"moved":false},"geometry":{"type":"Point","coordinates":[-114.649445,52.224971]}},{"type":"Feature","id":"spot-05","properties":{"name":"The Cabin","icon":"cabin","story":"","hero":"20260905_144830","photos":["20260905_144830","20260905_144835","20260905_144846","20260905_144901","20260905_144908","20260905_144914","20260905_144923","20260905_144934","20260905_145220","20260905_145221","20260905_145308"],"featured":true,"guess":true,"moved":false},"geometry":{"type":"Point","coordinates":[-114.649126,52.225041]}},{"type":"Feature","id":"spot-06","properties":{"name":"Pasture & Cattle","icon":"pasture","story":"","hero":"20260823_161247","photos":["20260823_161247","20260823_161256","20260823_161304","20260823_161313","20260823_161320","20260823_161326","20260823_161332","20260823_161407","20260823_161428","20260823_161432"],"featured":true,"guess":true,"moved":false},"geometry":{"type":"Point","coordinates":[-114.652113,52.228394]}},{"type":"Feature","id":"spot-07","properties":{"name":"Greenhouse & Shop","icon":"greenhouse","story":"","hero":"20260823_141535","photos":["20260823_141535","20260823_141547","20260823_141603","20260823_141618","20260823_141635","20260823_141650","20260823_141702","20260823_141713","20260823_162201"],"featured":true,"guess":true,"moved":false},"geometry":{"type":"Point","coordinates":[-114.646256,52.226054]}},{"type":"Feature","id":"spot-08","properties":{"name":"Ring Road Trail Signs","icon":"sign","story":"","hero":"20260905_144235","photos":["20260905_144235","20260905_144237","20260905_144239","20260905_152035","20260905_152038","20260905_160852","20260905_160857"],"featured":true,"guess":true,"moved":false},"geometry":{"type":"Point","coordinates":[-114.653097,52.227823]}},{"type":"Feature","id":"spot-09","properties":{"name":"Payton Trail Sign","icon":"sign","story":"","hero":"20260905_151850","photos":["20260905_151850","20260905_151854","20260905_151913","20260905_151917","20260905_151926","20260905_151930","20260905_151935"],"featured":true,"guess":true,"moved":false},"geometry":{"type":"Point","coordinates":[-114.653358,52.227264]}},{"type":"Feature","id":"spot-10","properties":{"name":"Front Gate & Road","icon":"gate","story":"","hero":"20260823_140246","photos":["20260823_140246","20260823_140252","20260823_141225","20260823_141232","20260823_141253"],"featured":true,"guess":true,"moved":false},"geometry":{"type":"Point","coordinates":[-114.644333,52.225161]}},{"type":"Feature","id":"spot-11","properties":{"name":"North Field Cut-outs","icon":"animal","story":"","hero":"20260823_153112","photos":["20260823_153112","20260823_153141","20260823_153143","20260823_153150","20260823_153159"],"featured":true,"guess":true,"moved":false},"geometry":{"type":"Point","coordinates":[-114.64574,52.229651]}},{"type":"Feature","id":"spot-12","properties":{"name":"Cougar Bridge","icon":"bridge","story":"","hero":"20260823_160132","photos":["20260823_160132","20260823_160144","20260905_171643","20260905_171657","20260905_171702"],"featured":true,"guess":true,"moved":false},"geometry":{"type":"Point","coordinates":[-114.648292,52.225714]}},{"type":"Feature","id":"spot-13","properties":{"name":"Target Range","icon":"target","story":"","hero":"20260823_160321","photos":["20260823_160321","20260823_160326","20260823_160404","20260823_160444","20260823_160459"],"featured":true,"guess":true,"moved":false},"geometry":{"type":"Point","coordinates":[-114.647477,52.225899]}},{"type":"Feature","id":"spot-14","properties":{"name":"Wildlife Cut-outs","icon":"animal","story":"","hero":"20260823_160531","photos":["20260823_160531","20260823_160545","20260823_160556","20260823_160612","20260823_160658"],"featured":true,"guess":true,"moved":false},"geometry":{"type":"Point","coordinates":[-114.6472,52.225817]}},{"type":"Feature","id":"spot-15","properties":{"name":"Log Piles","icon":"wood","story":"","hero":"20260905_153303","photos":["20260905_153303","20260905_153319","20260905_153903","20260905_153922","20260905_153932"],"featured":true,"guess":true,"moved":false},"geometry":{"type":"Point","coordinates":[-114.651948,52.226181]}},{"type":"Feature","id":"spot-16","properties":{"name":"Trail Signs by the Cabin","icon":"sign","story":"","hero":"20260905_151537","photos":["20260905_151537","20260905_151543","20260905_153119","20260905_153123"],"featured":true,"guess":true,"moved":false},"geometry":{"type":"Point","coordinates":[-114.649341,52.225248]}},{"type":"Feature","id":"spot-17","properties":{"name":"East Field","icon":"field","story":"","hero":"20260823_144945","photos":["20260823_144945","20260823_144954","20260823_153446"],"featured":true,"guess":true,"moved":false},"geometry":{"type":"Point","coordinates":[-114.644522,52.230679]}},{"type":"Feature","id":"spot-18","properties":{"name":"Southwest Gate","icon":"gate","story":"","hero":"20260823_151314","photos":["20260823_151314","20260823_151315","20260905_162301"],"featured":true,"guess":true,"moved":false},"geometry":{"type":"Point","coordinates":[-114.656195,52.223943]}},{"type":"Feature","id":"spot-19","properties":{"name":"Lone Tree & Horses","icon":"horse","story":"","hero":"20260823_152919","photos":["20260823_152919","20260823_152953","20260823_152957"],"featured":true,"guess":true,"moved":false},"geometry":{"type":"Point","coordinates":[-114.647501,52.227796]}},{"type":"Feature","id":"spot-20","properties":{"name":"North Field","icon":"field","story":"","hero":"20260823_154823","photos":["20260823_154823","20260823_154829","20260823_154833"],"featured":true,"guess":true,"moved":false},"geometry":{"type":"Point","coordinates":[-114.649481,52.23127]}},{"type":"Feature","id":"spot-21","properties":{"name":"Bale Feeder","icon":"field","story":"","hero":"20260823_155227","photos":["20260823_155227","20260823_155305","20260823_155323"],"featured":true,"guess":true,"moved":false},"geometry":{"type":"Point","coordinates":[-114.647129,52.226169]}},{"type":"Feature","id":"spot-22","properties":{"name":"Steel Targets","icon":"target","story":"","hero":"20260823_155836","photos":["20260823_155836","20260823_155858","20260823_155903"],"featured":true,"guess":true,"moved":false},"geometry":{"type":"Point","coordinates":[-114.64845,52.224806]}},{"type":"Feature","id":"spot-23","properties":{"name":"Target Trail","icon":"target","story":"","hero":"20260823_155927","photos":["20260823_155927","20260823_155956","20260823_160014"],"featured":true,"guess":true,"moved":false},"geometry":{"type":"Point","coordinates":[-114.648171,52.22506]}},{"type":"Feature","id":"spot-24","properties":{"name":"","icon":"photo","story":"","hero":"20260823_160036","photos":["20260823_160036","20260823_160055","20260823_160110"],"featured":false,"guess":false,"moved":false},"geometry":{"type":"Point","coordinates":[-114.648128,52.225393]}},{"type":"Feature","id":"spot-25","properties":{"name":"Firewood Stacks","icon":"wood","story":"","hero":"20260905_152826","photos":["20260905_152826","20260905_154313","20260905_154316"],"featured":true,"guess":true,"moved":false},"geometry":{"type":"Point","coordinates":[-114.652302,52.225781]}},{"type":"Feature","id":"spot-26","properties":{"name":"Trailhead Signs","icon":"sign","story":"","hero":"20260905_155227","photos":["20260905_155227","20260905_155300","20260905_155302"],"featured":true,"guess":true,"moved":false},"geometry":{"type":"Point","coordinates":[-114.652966,52.226624]}},{"type":"Feature","id":"spot-27","properties":{"name":"","icon":"photo","story":"","hero":"20260823_144533","photos":["20260823_144533","20260823_144535"],"featured":false,"guess":false,"moved":false},"geometry":{"type":"Point","coordinates":[-114.64455,52.228075]}},{"type":"Feature","id":"spot-28","properties":{"name":"","icon":"photo","story":"","hero":"20260823_144817","photos":["20260823_144817","20260823_144823"],"featured":false,"guess":false,"moved":false},"geometry":{"type":"Point","coordinates":[-114.644519,52.229994]}},{"type":"Feature","id":"spot-29","properties":{"name":"","icon":"photo","story":"","hero":"20260823_153049","photos":["20260823_153049","20260823_153052"],"featured":false,"guess":false,"moved":false},"geometry":{"type":"Point","coordinates":[-114.645915,52.228205]}},{"type":"Feature","id":"spot-30","properties":{"name":"","icon":"photo","story":"","hero":"20260823_154446","photos":["20260823_154446","20260823_154503"],"featured":false,"guess":false,"moved":false},"geometry":{"type":"Point","coordinates":[-114.64692,52.230134]}},{"type":"Feature","id":"spot-31","properties":{"name":"","icon":"photo","story":"","hero":"20260823_155013","photos":["20260823_155013","20260823_155016"],"featured":false,"guess":false,"moved":false},"geometry":{"type":"Point","coordinates":[-114.647691,52.228228]}},{"type":"Feature","id":"spot-32","properties":{"name":"","icon":"photo","story":"","hero":"20260823_160229","photos":["20260823_160229","20260823_160255"],"featured":false,"guess":false,"moved":false},"geometry":{"type":"Point","coordinates":[-114.647928,52.225577]}},{"type":"Feature","id":"spot-33","properties":{"name":"","icon":"photo","story":"","hero":"20260823_161446","photos":["20260823_161446","20260905_144020"],"featured":false,"guess":false,"moved":false},"geometry":{"type":"Point","coordinates":[-114.65182,52.228526]}},{"type":"Feature","id":"spot-34","properties":{"name":"","icon":"photo","story":"","hero":"20260823_162033","photos":["20260823_162033","20260823_162046"],"featured":false,"guess":false,"moved":false},"geometry":{"type":"Point","coordinates":[-114.646861,52.22654]}},{"type":"Feature","id":"spot-35","properties":{"name":"","icon":"photo","story":"","hero":"20260905_144249","photos":["20260905_144249","20260905_144254"],"featured":false,"guess":false,"moved":false},"geometry":{"type":"Point","coordinates":[-114.653202,52.227459]}},{"type":"Feature","id":"spot-36","properties":{"name":"","icon":"photo","story":"","hero":"20260905_144359","photos":["20260905_144359","20260905_144404"],"featured":false,"guess":false,"moved":false},"geometry":{"type":"Point","coordinates":[-114.65297,52.225262]}},{"type":"Feature","id":"spot-37","properties":{"name":"","icon":"photo","story":"","hero":"20260905_144457","photos":["20260905_144457","20260905_144500"],"featured":false,"guess":false,"moved":false},"geometry":{"type":"Point","coordinates":[-114.650412,52.224652]}},{"type":"Feature","id":"spot-38","properties":{"name":"","icon":"photo","story":"","hero":"20260905_150221","photos":["20260905_150221","20260905_150224"],"featured":false,"guess":false,"moved":false},"geometry":{"type":"Point","coordinates":[-114.651555,52.224281]}},{"type":"Feature","id":"spot-39","properties":{"name":"","icon":"photo","story":"","hero":"20260905_152225","photos":["20260905_152225","20260905_152228"],"featured":false,"guess":false,"moved":false},"geometry":{"type":"Point","coordinates":[-114.653918,52.226045]}},{"type":"Feature","id":"spot-40","properties":{"name":"","icon":"photo","story":"","hero":"20260905_152702","photos":["20260905_152702","20260905_152703"],"featured":false,"guess":false,"moved":false},"geometry":{"type":"Point","coordinates":[-114.653609,52.226803]}},{"type":"Feature","id":"spot-41","properties":{"name":"","icon":"photo","story":"","hero":"20260905_152916","photos":["20260905_152916","20260905_152919"],"featured":false,"guess":false,"moved":false},"geometry":{"type":"Point","coordinates":[-114.6509,52.225042]}},{"type":"Feature","id":"spot-42","properties":{"name":"","icon":"photo","story":"","hero":"20260905_153424","photos":["20260905_153424","20260905_153427"],"featured":false,"guess":false,"moved":false},"geometry":{"type":"Point","coordinates":[-114.651896,52.225893]}},{"type":"Feature","id":"spot-43","properties":{"name":"","icon":"photo","story":"","hero":"20260905_154524","photos":["20260905_154524","20260905_154529"],"featured":false,"guess":false,"moved":false},"geometry":{"type":"Point","coordinates":[-114.653711,52.225897]}},{"type":"Feature","id":"spot-44","properties":{"name":"","icon":"photo","story":"","hero":"20260905_162033","photos":["20260905_162033","20260905_162036"],"featured":false,"guess":false,"moved":false},"geometry":{"type":"Point","coordinates":[-114.65473,52.224908]}},{"type":"Feature","id":"spot-45","properties":{"name":"","icon":"photo","story":"","hero":"20260905_162912","photos":["20260905_162912","20260905_162916"],"featured":false,"guess":false,"moved":false},"geometry":{"type":"Point","coordinates":[-114.653238,52.229904]}},{"type":"Feature","id":"spot-46","properties":{"name":"","icon":"photo","story":"","hero":"20260905_162940","photos":["20260905_162940","20260905_162944"],"featured":false,"guess":false,"moved":false},"geometry":{"type":"Point","coordinates":[-114.653697,52.229862]}},{"type":"Feature","id":"spot-47","properties":{"name":"","icon":"photo","story":"","hero":"20260905_163022","photos":["20260905_163022","20260905_163024"],"featured":false,"guess":false,"moved":false},"geometry":{"type":"Point","coordinates":[-114.654879,52.229601]}},{"type":"Feature","id":"spot-48","properties":{"name":"","icon":"photo","story":"","hero":"20260905_163152","photos":["20260905_163152","20260905_163153"],"featured":false,"guess":false,"moved":false},"geometry":{"type":"Point","coordinates":[-114.655587,52.228845]}},{"type":"Feature","id":"spot-49","properties":{"name":"","icon":"photo","story":"","hero":"20260905_164609","photos":["20260905_164609","20260905_164627"],"featured":false,"guess":false,"moved":false},"geometry":{"type":"Point","coordinates":[-114.653945,52.228839]}},{"type":"Feature","id":"spot-50","properties":{"name":"","icon":"photo","story":"","hero":"20260905_170735","photos":["20260905_170735","20260905_170737"],"featured":false,"guess":false,"moved":false},"geometry":{"type":"Point","coordinates":[-114.647649,52.224797]}},{"type":"Feature","id":"spot-51","properties":{"name":"","icon":"photo","story":"","hero":"20260823_145552","photos":["20260823_145552"],"featured":false,"guess":false,"moved":false},"geometry":{"type":"Point","coordinates":[-114.649847,52.231607]}},{"type":"Feature","id":"spot-52","properties":{"name":"","icon":"photo","story":"","hero":"20260823_152442","photos":["20260823_152442"],"featured":false,"guess":false,"moved":false},"geometry":{"type":"Point","coordinates":[-114.644701,52.225109]}},{"type":"Feature","id":"spot-53","properties":{"name":"","icon":"photo","story":"","hero":"20260823_153201","photos":["20260823_153201"],"featured":false,"guess":false,"moved":false},"geometry":{"type":"Point","coordinates":[-114.64596,52.228961]}},{"type":"Feature","id":"spot-54","properties":{"name":"","icon":"photo","story":"","hero":"20260823_154319","photos":["20260823_154319"],"featured":false,"guess":false,"moved":false},"geometry":{"type":"Point","coordinates":[-114.644875,52.23026]}},{"type":"Feature","id":"spot-55","properties":{"name":"","icon":"photo","story":"","hero":"20260823_154355","photos":["20260823_154355"],"featured":false,"guess":false,"moved":false},"geometry":{"type":"Point","coordinates":[-114.646236,52.230701]}},{"type":"Feature","id":"spot-56","properties":{"name":"","icon":"photo","story":"","hero":"20260823_155113","photos":["20260823_155113"],"featured":false,"guess":false,"moved":false},"geometry":{"type":"Point","coordinates":[-114.646622,52.226177]}},{"type":"Feature","id":"spot-57","properties":{"name":"","icon":"photo","story":"","hero":"20260823_161008","photos":["20260823_161008"],"featured":false,"guess":false,"moved":false},"geometry":{"type":"Point","coordinates":[-114.650368,52.227447]}},{"type":"Feature","id":"spot-58","properties":{"name":"","icon":"photo","story":"","hero":"20260823_161603","photos":["20260823_161603"],"featured":false,"guess":false,"moved":false},"geometry":{"type":"Point","coordinates":[-114.651026,52.228453]}},{"type":"Feature","id":"spot-59","properties":{"name":"","icon":"photo","story":"","hero":"20260905_144055","photos":["20260905_144055"],"featured":false,"guess":false,"moved":false},"geometry":{"type":"Point","coordinates":[-114.652683,52.230336]}},{"type":"Feature","id":"spot-60","properties":{"name":"","icon":"photo","story":"","hero":"20260905_145833","photos":["20260905_145833"],"featured":false,"guess":false,"moved":false},"geometry":{"type":"Point","coordinates":[-114.648754,52.224874]}},{"type":"Feature","id":"spot-61","properties":{"name":"","icon":"photo","story":"","hero":"20260905_150037","photos":["20260905_150037"],"featured":false,"guess":false,"moved":false},"geometry":{"type":"Point","coordinates":[-114.648089,52.224298]}},{"type":"Feature","id":"spot-62","properties":{"name":"","icon":"photo","story":"","hero":"20260905_160944","photos":["20260905_160944"],"featured":false,"guess":false,"moved":false},"geometry":{"type":"Point","coordinates":[-114.652783,52.227463]}},{"type":"Feature","id":"spot-63","properties":{"name":"","icon":"photo","story":"","hero":"20260905_164509","photos":["20260905_164509"],"featured":false,"guess":false,"moved":false},"geometry":{"type":"Point","coordinates":[-114.653581,52.22745]}}]}