{"type":"FeatureCollection","categories":{"boundary":{"label":"Property Boundaries","order":1},"roads":{"label":"Roads & Yard","order":2},"trails":{"label":"Trails","order":3}},"features":[{"type":"Feature","id":"roger-trail","properties":{"name":"Roger Trail","category":"trails","color":"#ffd400","length_m":148,"recorded":"2026-09-05T22:09:31Z"},"geometry":{"type":"LineString","coordinates":[[-114.652775,52.227465],[-114.652587,52.227342],[-114.65246,52.227208],[-114.65223,52.227097],[-114.652132,52.22694],[-114.651749,52.226997],[-114.651643,52.226967],[-114.65146,52.226776],[-114.65127,52.226716]]}},{"type":"Feature","id":"roper-trail","properties":{"name":"Roper trail","category":"trails","color":"#00e5ff","length_m":242,"recorded":"2026-09-05T21:20:49Z"},"geometry":{"type":"LineString","coordinates":[[-114.653191,52.227816],[-114.653606,52.22762],[-114.654038,52.227236],[-114.654069,52.227009],[-114.653918,52.226705],[-114.654003,52.226089],[-114.653801,52.22602],[-114.653652,52.22604]]}},{"type":"Feature","id":"driveway-main-yard","properties":{"name":"Driveway & Main Yard","category":"roads","color":"#e0e0e0","length_m":394,"recorded":"2026-08-23T20:03:13Z"},"geometry":{"type":"LineString","coordinates":[[-114.64445,52.225188],[-114.644587,52.225165],[-114.644921,52.225225],[-114.645904,52.225561],[-114.646011,52.225629],[-114.645815,52.225909],[-114.645872,52.225999],[-114.646304,52.226101],[-114.646415,52.22609],[-114.646467,52.225834],[-114.646178,52.225736],[-114.645956,52.225536],[-114.645072,52.225227],[-114.644477,52.225107]]}},{"type":"Feature","id":"n-s-trail","properties":{"name":"N/S Trail","category":"trails","color":"#ff4fd8","length_m":305,"recorded":"2026-09-05T22:13:05Z"},"geometry":{"type":"LineString","coordinates":[[-114.650992,52.226771],[-114.65127,52.226716],[-114.651556,52.226456],[-114.651446,52.226067],[-114.651561,52.225894],[-114.651587,52.225659],[-114.65177,52.22517],[-114.651936,52.224879],[-114.651888,52.224468],[-114.651951,52.224246]]}},{"type":"Feature","id":"clint-trail","properties":{"name":"Clint Trail","category":"trails","color":"#7cff4f","length_m":68,"recorded":"2026-09-05T21:25:37Z"},"geometry":{"type":"LineString","coordinates":[[-114.653323,52.227267],[-114.653574,52.227223],[-114.653686,52.227086],[-114.653968,52.226951],[-114.654031,52.22688]]}},{"type":"Feature","id":"outside-trail","properties":{"name":"Outside Trail","category":"trails","color":"#ff8c1a","length_m":773,"recorded":"2026-09-05T23:06:49Z"},"geometry":{"type":"LineString","coordinates":[[-114.64718,52.224031],[-114.647136,52.223993],[-114.647113,52.224088],[-114.647177,52.224301],[-114.647428,52.224655],[-114.647567,52.224722],[-114.647711,52.22485],[-114.648061,52.225028],[-114.648402,52.225332],[-114.648954,52.22566],[-114.649493,52.226059],[-114.650105,52.226366],[-114.650849,52.22689],[-114.651257,52.227247],[-114.652101,52.227528],[-114.652772,52.227837],[-114.652994,52.228044],[-114.653293,52.228103],[-114.654167,52.228411],[-114.654551,52.228436],[-114.654733,52.22815]]}},{"type":"Feature","id":"saturday-afternoon-walking","properties":{"name":"Saturday Afternoon Walking","category":"trails","color":"#b388ff","length_m":100,"recorded":"2026-09-05T21:46:24Z"},"geometry":{"type":"LineString","coordinates":[[-114.653654,52.226025],[-114.65329,52.226165],[-114.653106,52.226204],[-114.652703,52.226213],[-114.652403,52.226288],[-114.652287,52.22628]]}},{"type":"Feature","id":"tree-farm-trail","properties":{"name":"Tree Farm Trail","category":"trails","color":"#4fc3ff","length_m":451,"recorded":"2026-09-05T20:35:55Z"},"geometry":{"type":"LineString","coordinates":[[-114.651874,52.228561],[-114.651827,52.228619],[-114.651841,52.228771],[-114.652172,52.229326],[-114.652306,52.229793],[-114.652493,52.230087],[-114.652525,52.230272],[-114.652645,52.230367],[-114.65281,52.230376],[-114.652962,52.230291],[-114.652958,52.230178],[-114.652809,52.229946],[-114.652435,52.229582],[-114.652467,52.229302],[-114.652233,52.228942],[-114.651878,52.228717],[-114.651867,52.228548]]}},{"type":"Feature","id":"quarter-section-boundary","properties":{"name":"Quarter Section Boundary","category":"boundary","color":"#ffffff","length_m":3256,"recorded":"2026-08-23T20:40:31Z"},"geometry":{"type":"Polygon","coordinates":[[[-114.644443,52.225174],[-114.644462,52.225289],[-114.64453,52.225371],[-114.644559,52.225877],[-114.644519,52.226297],[-114.644552,52.228107],[-114.644524,52.230498],[-114.644571,52.231572],[-114.644704,52.23155],[-114.64694,52.231592],[-114.64712,52.231567],[-114.64761,52.231571],[-114.652289,52.23162],[-114.652427,52.231626],[-114.652443,52.231654],[-114.65369,52.231629],[-114.653802,52.231608],[-114.653763,52.2316],[-114.654495,52.231588],[-114.654604,52.23156],[-114.655721,52.231581],[-114.655864,52.231555],[-114.65595,52.229034],[-114.656037,52.228],[-114.65611,52.226082],[-114.656157,52.225879],[-114.656144,52.225378],[-114.656224,52.223968],[-114.656186,52.223941],[-114.653957,52.223947],[-114.651488,52.224003],[-114.644486,52.224044],[-114.644499,52.224774],[-114.644486,52.225099],[-114.644443,52.225174]]]}},{"type":"Feature","id":"trailhead","properties":{"name":"TrailHead","category":"trails","color":"#ff5252","length_m":165,"recorded":"2026-09-05T21:54:31Z"},"geometry":{"type":"LineString","coordinates":[[-114.653594,52.226744],[-114.652911,52.226537],[-114.652353,52.226409],[-114.652146,52.225915],[-114.652309,52.225811]]}},{"type":"Feature","id":"cabin-perimeter","properties":{"name":"Cabin Perimeter","category":"boundary","color":"#ffcc80","length_m":101,"recorded":"2026-09-05T20:54:21Z"},"geometry":{"type":"Polygon","coordinates":[[[-114.649387,52.22507],[-114.649404,52.225119],[-114.649329,52.225202],[-114.649293,52.225205],[-114.649228,52.225133],[-114.649049,52.225161],[-114.649053,52.224932],[-114.649235,52.224892],[-114.64934,52.224974],[-114.649387,52.22507]]]}},{"type":"Feature","id":"e-w-flyover","properties":{"name":"E/W Flyover","category":"trails","color":"#c6ff00","length_m":504,"recorded":"2026-09-05T22:18:21Z"},"geometry":{"type":"LineString","coordinates":[[-114.650053,52.225293],[-114.650254,52.225195],[-114.650456,52.225266],[-114.650772,52.225226],[-114.65097,52.225236],[-114.65202,52.225452],[-114.652821,52.22538],[-114.653104,52.225429],[-114.653528,52.225442],[-114.65417,52.225219],[-114.655698,52.224401],[-114.655803,52.224428],[-114.655923,52.224393],[-114.656113,52.224233],[-114.656223,52.223986]]}},{"type":"Feature","id":"lor-trail","properties":{"name":"Lor Trail","category":"trails","color":"#ffab91","length_m":62,"recorded":"2026-09-05T21:23:44Z"},"geometry":{"type":"LineString","coordinates":[[-114.653304,52.227307],[-114.653509,52.227376],[-114.654056,52.227132]]}},{"type":"Feature","id":"hill-behind-house","properties":{"name":"Hill behind house","category":"trails","color":"#64ffda","length_m":124,"recorded":"2026-08-23T20:29:17Z"},"geometry":{"type":"LineString","coordinates":[[-114.646477,52.225866],[-114.646739,52.225842],[-114.646678,52.225914],[-114.646542,52.225905],[-114.646537,52.225929],[-114.64668,52.225983],[-114.646745,52.225949],[-114.646642,52.22592],[-114.646782,52.22595],[-114.646867,52.225882],[-114.646916,52.225888],[-114.646881,52.225952],[-114.64699,52.225978],[-114.646786,52.226011],[-114.646765,52.226073]]}},{"type":"Feature","id":"margaret-trail","properties":{"name":"Margaret Trail","category":"trails","color":"#f48fb1","length_m":155,"recorded":"2026-09-05T22:05:09Z"},"geometry":{"type":"LineString","coordinates":[[-114.652824,52.227741],[-114.652868,52.227604],[-114.652585,52.227125],[-114.652587,52.227058],[-114.652769,52.226758],[-114.652452,52.226451]]}},{"type":"Feature","id":"payton-and-caine","properties":{"name":"Payton and Caine","category":"trails","color":"#ffd400","length_m":373,"recorded":"2026-09-05T21:15:55Z"},"geometry":{"type":"LineString","coordinates":[[-114.649293,52.225205],[-114.649308,52.225343],[-114.649603,52.22561],[-114.650082,52.225861],[-114.650211,52.225893],[-114.650449,52.226081],[-114.650737,52.226212],[-114.650966,52.226269],[-114.651178,52.226456],[-114.651624,52.226572],[-114.651831,52.226543],[-114.651935,52.226566],[-114.653331,52.227249]]}},{"type":"Feature","id":"cabin-trail","properties":{"name":"Cabin Trail","category":"trails","color":"#00e5ff","length_m":695,"recorded":"2026-09-05T20:41:52Z"},"geometry":{"type":"LineString","coordinates":[[-114.651883,52.228563],[-114.651887,52.228494],[-114.652264,52.228286],[-114.652726,52.228101],[-114.653017,52.227866],[-114.653161,52.227516],[-114.653299,52.227319],[-114.653643,52.226623],[-114.653659,52.22598],[-114.653613,52.225877],[-114.653126,52.225472],[-114.653015,52.225273],[-114.652251,52.225033],[-114.651623,52.224893],[-114.651107,52.224728],[-114.650613,52.224627],[-114.650445,52.224636],[-114.649379,52.22505]]}},{"type":"Feature","id":"golf-range-trail","properties":{"name":"Golf range trail","category":"trails","color":"#ff4fd8","length_m":412,"recorded":"2026-08-23T22:07:07Z"},"geometry":{"type":"LineString","coordinates":[[-114.647481,52.226073],[-114.647453,52.226053],[-114.648086,52.226323],[-114.649227,52.22691],[-114.65036,52.227442],[-114.6521,52.228386]]}},{"type":"Feature","id":"acreage-parcel","properties":{"name":"Acreage Parcel","category":"boundary","color":"#ff9800","length_m":657,"recorded":"2026-08-23T21:33:32Z"},"geometry":{"type":"Polygon","coordinates":[[[-114.644557,52.230039],[-114.644532,52.231378],[-114.644576,52.23156],[-114.64693,52.231566],[-114.646914,52.230068],[-114.646841,52.230065],[-114.646786,52.230098],[-114.646342,52.230059],[-114.644557,52.230039]]]}},{"type":"Feature","id":"larry-s-crossing","properties":{"name":"Larry's Crossing","category":"trails","color":"#7cff4f","length_m":326,"recorded":"2026-09-05T22:27:57Z"},"geometry":{"type":"LineString","coordinates":[[-114.652098,52.228376],[-114.652127,52.228467],[-114.652493,52.228718],[-114.652543,52.228897],[-114.652742,52.229147],[-114.652741,52.229275],[-114.652851,52.229391],[-114.652889,52.229568],[-114.653076,52.229702],[-114.653255,52.229906],[-114.653697,52.229862],[-114.654253,52.229878],[-114.654381,52.229852],[-114.654892,52.229592],[-114.654898,52.229493]]}},{"type":"Feature","id":"trail-home","properties":{"name":"Trail Home","category":"trails","color":"#ff8c1a","length_m":461,"recorded":"2026-09-05T22:36:29Z"},"geometry":{"type":"LineString","coordinates":[[-114.652076,52.228378],[-114.651852,52.228272],[-114.651461,52.228249],[-114.650744,52.227896],[-114.650403,52.227631],[-114.649872,52.227415],[-114.649496,52.227219],[-114.64925,52.227168],[-114.648761,52.226966],[-114.648446,52.226802],[-114.648269,52.226647],[-114.647883,52.226454],[-114.64724,52.226294],[-114.646815,52.22608],[-114.646738,52.22607],[-114.646786,52.226011]]}},{"type":"Feature","id":"warren-trail","properties":{"name":"Warren Trail","category":"trails","color":"#b388ff","length_m":59,"recorded":"2026-09-05T21:53:07Z"},"geometry":{"type":"LineString","coordinates":[[-114.653195,52.226639],[-114.653211,52.226568],[-114.65332,52.226484],[-114.653383,52.226328],[-114.653373,52.226133]]}},{"type":"Feature","id":"finley-trail","properties":{"name":"Finley Trail","category":"trails","color":"#4fc3ff","length_m":228,"recorded":"2026-09-05T21:36:35Z"},"geometry":{"type":"LineString","coordinates":[[-114.649539,52.224991],[-114.649832,52.225341],[-114.650087,52.225455],[-114.650425,52.225679],[-114.65056,52.225721],[-114.650838,52.225748],[-114.650976,52.225802],[-114.651105,52.225924],[-114.651148,52.226021],[-114.651329,52.226142],[-114.651514,52.226201],[-114.651942,52.226185]]}},{"type":"Feature","id":"skull-trail","properties":{"name":"Skull Trail","category":"trails","color":"#ff5252","length_m":347,"recorded":"2026-09-05T22:30:59Z"},"geometry":{"type":"LineString","coordinates":[[-114.654894,52.229494],[-114.655033,52.229332],[-114.655117,52.229148],[-114.655346,52.229059],[-114.655584,52.228839],[-114.655572,52.228519],[-114.655666,52.22838],[-114.655066,52.22807],[-114.65477,52.228023],[-114.654609,52.227914],[-114.654456,52.227858],[-114.654114,52.227793],[-114.653919,52.227716],[-114.653313,52.227288]]}},{"type":"Feature","id":"tracy-trail","properties":{"name":"Tracy Trail","category":"trails","color":"#c6ff00","length_m":298,"recorded":"2026-09-05T21:56:37Z"},"geometry":{"type":"LineString","coordinates":[[-114.652949,52.226549],[-114.652947,52.226219],[-114.652889,52.226072],[-114.652827,52.226015],[-114.652302,52.225807],[-114.651997,52.225459],[-114.651867,52.225363],[-114.651469,52.225144],[-114.650798,52.224999],[-114.650175,52.224804],[-114.65015,52.224768]]}},{"type":"Feature","id":"brittany-trail","properties":{"name":"Brittany Trail","category":"trails","color":"#ffab91","length_m":170,"recorded":"2026-09-05T21:34:42Z"},"geometry":{"type":"LineString","coordinates":[[-114.651574,52.225763],[-114.651024,52.225524],[-114.650751,52.225472],[-114.650421,52.225493],[-114.650114,52.225341],[-114.649774,52.225066],[-114.649576,52.224971]]}},{"type":"Feature","id":"shooting-range","properties":{"name":"Shooting range","category":"trails","color":"#64ffda","length_m":174,"recorded":"2026-08-23T21:53:41Z"},"geometry":{"type":"LineString","coordinates":[[-114.647087,52.226213],[-114.647979,52.225506],[-114.648093,52.225359],[-114.648197,52.225062],[-114.648358,52.224873]]}},{"type":"Feature","id":"ring-road-mm-ff-cc","properties":{"name":"Ring Road (MM, FF, CC)","category":"roads","color":"#bdbdbd","length_m":1581,"recorded":"2026-09-05T20:57:50Z"},"geometry":{"type":"LineString","coordinates":[[-114.649027,52.22502],[-114.648928,52.224905],[-114.648819,52.224872],[-114.648379,52.224879],[-114.647956,52.224739],[-114.647862,52.224735],[-114.647715,52.224666],[-114.647514,52.22453],[-114.647501,52.224282],[-114.647648,52.224266],[-114.64815,52.224311],[-114.648303,52.22434],[-114.648428,52.224429],[-114.648581,52.224467],[-114.648743,52.224463],[-114.64931,52.224332],[-114.649552,52.224342],[-114.649848,52.224275],[-114.650263,52.224381],[-114.650637,52.224357],[-114.650905,52.224383],[-114.651438,52.22428],[-114.651846,52.224235],[-114.651967,52.224248],[-114.652312,52.2244],[-114.652984,52.224779],[-114.653517,52.224988],[-114.653798,52.225314],[-114.654397,52.225805],[-114.654477,52.22601],[-114.654801,52.226309],[-114.654904,52.226569],[-114.654914,52.226834],[-114.654996,52.227055],[-114.654875,52.227403],[-114.654935,52.227531],[-114.654884,52.227611],[-114.654909,52.227729],[-114.654785,52.228095],[-114.65471,52.228171],[-114.654626,52.228201],[-114.654508,52.228176],[-114.654381,52.228198],[-114.654147,52.227977],[-114.654071,52.227967],[-114.653913,52.228005],[-114.653628,52.227939],[-114.653486,52.227847],[-114.653346,52.227805],[-114.653094,52.22782],[-114.652939,52.227784],[-114.652796,52.227731],[-114.652537,52.227509],[-114.652086,52.227284],[-114.651788,52.227244],[-114.651396,52.227133],[-114.651009,52.226784],[-114.650437,52.226369],[-114.650339,52.226174],[-114.650073,52.226114],[-114.64996,52.225952],[-114.64969,52.225779],[-114.649274,52.225614],[-114.648866,52.225383],[-114.648778,52.22519],[-114.648959,52.22498]]}},{"type":"Feature","id":"cougar-bridge-trail","properties":{"name":"Cougar Bridge Trail","category":"trails","color":"#f48fb1","length_m":199,"recorded":"2026-09-05T22:40:08Z"},"geometry":{"type":"LineString","coordinates":[[-114.647164,52.226253],[-114.647835,52.225881],[-114.648294,52.225705],[-114.648481,52.225519],[-114.648706,52.225411],[-114.648704,52.225099],[-114.648962,52.224979]]}},{"type":"Feature","id":"taylor-trail","properties":{"name":"Taylor Trail","category":"trails","color":"#ffd400","length_m":200,"recorded":"2026-09-05T21:43:26Z"},"geometry":{"type":"LineString","coordinates":[[-114.65227,52.225775],[-114.652481,52.225737],[-114.652586,52.225669],[-114.652761,52.225627],[-114.652978,52.225227],[-114.653257,52.22521],[-114.653329,52.22525],[-114.65336,52.225367],[-114.653499,52.225569],[-114.653794,52.225791],[-114.65378,52.225869],[-114.653649,52.225931]]}},{"type":"Feature","id":"field-highway-trail","properties":{"name":"Field Highway Trail","category":"roads","color":"#d7ccc8","length_m":477,"recorded":"2026-08-23T22:15:07Z"},"geometry":{"type":"LineString","coordinates":[[-114.651862,52.228537],[-114.651525,52.22863],[-114.651272,52.228578],[-114.649126,52.227578],[-114.647411,52.226854],[-114.646926,52.226599],[-114.6468,52.2265],[-114.646577,52.226148],[-114.646652,52.226077]]}},{"type":"Feature","id":"zoey-trail","properties":{"name":"Zoey Trail","category":"trails","color":"#00e5ff","length_m":230,"recorded":"2026-09-05T21:30:59Z"},"geometry":{"type":"LineString","coordinates":[[-114.649401,52.225105],[-114.649387,52.225199],[-114.649678,52.225382],[-114.64972,52.225456],[-114.649833,52.225484],[-114.649937,52.225553],[-114.650162,52.225757],[-114.650354,52.225805],[-114.65048,52.225885],[-114.650696,52.225951],[-114.650938,52.226098],[-114.651115,52.22615],[-114.651611,52.226204],[-114.651946,52.226188]]}},{"type":"Feature","id":"house","properties":{"name":"House","category":"waypoint"},"geometry":{"type":"Point","coordinates":[-114.646289,52.225886]}}]}